iata,name,city,state,country,latitude,longitude
BTI,Barter Island LRRS Airport,Barter Island,NA,USA,70.13400269,-143.5820007
LUR,Cape Lisburne LRRS Airport,Cape Lisburne,NA,USA,68.87509918,-166.1100006
PIZ,Point Lay LRRS Airport,Point Lay,NA,USA,69.73290253,-163.0050049
ITO,Hilo International Airport,Hilo,NA,USA,19.72139931,-155.0480042
ORL,Orlando Executive Airport,Orlando,NA,USA,28.5455,-81.332901
BTT,Bettles Airport,Bettles,NA,USA,66.91390228,-151.529007
UTO,Indian Mountain LRRS Airport,Indian Mountains,NA,USA,65.99279785,-153.7039948
FYU,Fort Yukon Airport,Fort Yukon,NA,USA,66.57150269,-145.25
SVW,Sparrevohn LRRS Airport,Sparrevohn,NA,USA,61.09740067,-155.5740051
FRN,Bryant Army Heliport,Fort Richardson,NA,USA,61.26639938,-149.6529999
TLJ,Tatalina LRRS Airport,Tatalina,NA,USA,62.89440155,-155.977005
CZF,Cape Romanzof LRRS Airport,Cape Romanzof,NA,USA,61.78030014,-166.0390015
BED,Laurence G Hanscom Field,Bedford,NA,USA,42.47000122,-71.28900146
SNP,St Paul Island Airport,St. Paul Island,NA,USA,57.16730118,-170.2200012
EHM,Cape Newenham LRRS Airport,Cape Newenham,NA,USA,58.64640045,-162.0630035
STG,St George Airport,Point Barrow,NA,USA,56.57830048,-169.6620026
ILI,Iliamna Airport,Iliamna,NA,USA,59.75439835,-154.9109955
PTU,Platinum Airport,Port Moller,NA,USA,59.01139832,-161.8200073
BMX,Big Mountain Airport,Big Mountain,NA,USA,59.36119843,-155.2590027
OSC,Oscoda Wurtsmith Airport,Oscoda,NA,USA,44.451599,-83.394096
OAR,Marina Municipal Airport,Fort Ord,NA,USA,36.68190002,-121.762001
MHR,Sacramento Mather Airport,Sacramento,NA,USA,38.55390167,-121.2979965
BYS,Bicycle Lake Army Air Field,Fort Irwin,NA,USA,35.2804985,-116.6299973
FSM,Fort Smith Regional Airport,Fort Smith,NA,USA,35.33660126,-94.36740112
MRI,Merrill Field,Anchorage,NA,USA,61.21350098,-149.8439941
GNT,Grants-Milan Municipal Airport,Grants,NA,USA,35.16730118,-107.9020004
PNC,Ponca City Regional Airport,Ponca City,NA,USA,36.73199844,-97.09980011
SVN,Hunter Army Air Field,Hunter Aaf,NA,USA,32.00999832,-81.14569855
GFK,Grand Forks International Airport,Grand Forks,NA,USA,47.949299,-97.176102
PBF,"Pine Bluff Regional Airport, Grider Field",Pine Bluff,NA,USA,34.1731,-91.9356
NSE,Whiting Field Naval Air Station - North,Milton,NA,USA,30.7241993,-87.02189636
HNM,Hana Airport,Hana,NA,USA,20.79560089,-156.0140076
PRC,Ernest A. Love Field,Prescott,NA,USA,34.65449905,-112.4199982
TTN,Trenton Mercer Airport,Trenton,NA,USA,40.27669907,-74.81349945
BOS,General Edward Lawrence Logan International Airport,Boston,NA,USA,42.36429977,-71.00520325
SUU,Travis Air Force Base,Fairfield,NA,USA,38.26269913,-121.927002
RME,Griffiss International Airport,Rome,NA,USA,43.23379898,-75.40699768
ENV,Wendover Airport,Wendover,NA,USA,40.71870041,-114.0309982
BFM,Mobile Downtown Airport,Mobile,NA,USA,30.62680054,-88.06809998
OAK,Metropolitan Oakland International Airport,Oakland,NA,USA,37.721298,-122.221001
OMA,Eppley Airfield,Omaha,NA,USA,41.3032,-95.894096
OGG,Kahului Airport,Kahului,NA,USA,20.8986,-156.429993
ICT,Wichita Eisenhower National Airport,Wichita,NA,USA,37.649899,-97.433098
MCI,Kansas City International Airport,Kansas City,NA,USA,39.2976,-94.713898
MSN,Dane County Regional Truax Field,Madison,NA,USA,43.13990021,-89.33750153
DLG,Dillingham Airport,Dillingham,NA,USA,59.04470062,-158.5050049
HRO,Boone County Airport,Harrison,NA,USA,36.26150131,-93.15470123
PHX,Phoenix Sky Harbor International Airport,Phoenix,NA,USA,33.43429947,-112.012001
BGR,Bangor International Airport,Bangor,NA,USA,44.80739975,-68.82810211
FXE,Fort Lauderdale Executive Airport,Fort Lauderdale,NA,USA,26.19729996,-80.17070007
GGG,East Texas Regional Airport,Longview,NA,USA,32.38399887,-94.71150208
AND,Anderson Regional Airport,Andersen,NA,USA,34.49459839,-82.70939636
GEG,Spokane International Airport,Spokane,NA,USA,47.61989975,-117.5339966
HWO,North Perry Airport,Hollywood,NA,USA,26.0012,-80.2407
SFO,San Francisco International Airport,San Francisco,NA,USA,37.61899948,-122.375
CTB,Cut Bank International Airport,Cutbank,NA,USA,48.60839844,-112.3759995
ARA,Acadiana Regional Airport,Louisiana,NA,USA,30.0378,-91.883904
GNV,Gainesville Regional Airport,Gainesville,NA,USA,29.69009972,-82.27179718
MEM,Memphis International Airport,Memphis,NA,USA,35.04240036,-89.97669983
DUG,Bisbee Douglas International Airport,Douglas,NA,USA,31.46899986,-109.6039963
BIG,Allen Army Airfield,Delta Junction,NA,USA,63.99449921,-145.7220001
CNW,TSTC Waco Airport,Waco,NA,USA,31.63780022,-97.07409668
ANN,Annette Island Airport,Annette Island,NA,USA,55.04240036,-131.5720062
CAR,Caribou Municipal Airport,Caribou,NA,USA,46.87149811,-68.01789856
LRF,Little Rock Air Force Base,Jacksonville,NA,USA,34.91690063,-92.14969635
HUA,Redstone Army Air Field,Redstone,NA,USA,34.67869949,-86.68479919
POB,Pope Field,Fort Bragg,NA,USA,35.17089844,-79.01450348
DHT,Dalhart Municipal Airport,Dalhart,NA,USA,36.02259827,-102.5469971
DLF,DLF Airport,Del Rio,NA,USA,29.359501,-100.778002
LAX,Los Angeles International Airport,Los Angeles,NA,USA,33.94250107,-118.4079971
ANB,Anniston Regional Airport,Anniston,NA,USA,33.5882,-85.8581
CLE,Cleveland Hopkins International Airport,Cleveland,NA,USA,41.4117012,-81.84980011
DOV,Dover Air Force Base,Dover,NA,USA,39.12950134,-75.46600342
CVG,Cincinnati Northern Kentucky International Airport,Cincinnati,NA,USA,39.04880142,-84.6678009
FME,Tipton Airport,Fort Meade,NA,USA,39.08539963,-76.75939941
HON,Huron Regional Airport,Huron,NA,USA,44.3852005,-98.22850037
JNU,Juneau International Airport,Juneau,NA,USA,58.35499954,-134.576004
LFT,Lafayette Regional Airport,Lafayette,NA,USA,30.20529938,-91.98760223
EWR,Newark Liberty International Airport,Newark,NA,USA,40.69250107,-74.16870117
BOI,Boise Air Terminal/Gowen Field,Boise,NA,USA,43.5644,-116.223
INS,Creech Air Force Base,Indian Springs,NA,USA,36.58720016,-115.6729965
GCK,Garden City Regional Airport,Garden City,NA,USA,37.92750168,-100.723999
MOT,Minot International Airport,Minot,NA,USA,48.25939941,-101.2799988
HHI,Wheeler Army Airfield,Wahiawa,NA,USA,21.48349953,-158.0399933
MXF,Maxwell Air Force Base,Montgomery,NA,USA,32.3829,-86.365799
DAL,Dallas Love Field,Dallas,NA,USA,32.847099,-96.851799
FCS,Butts AAF (Fort Carson) Air Field,Fort Carson,NA,USA,38.67839813,-104.7570038
HLN,Helena Regional Airport,Helena,NA,USA,46.60680008,-111.9830017
NKX,Miramar Marine Corps Air Station - Mitscher Field,Miramar,NA,USA,32.86840057,-117.1429977
LUF,Luke Air Force Base,Phoenix,NA,USA,33.53499985,-112.3830032
HHR,Jack Northrop Field Hawthorne Municipal Airport,Hawthorne,NA,USA,33.922798,-118.334999
HUL,Houlton International Airport,Houlton,NA,USA,46.12310028,-67.792099
END,Vance Air Force Base,Enid,NA,USA,36.33919907,-97.91649628
NTD,Point Mugu Naval Air Station (Naval Base Ventura Co),Point Mugu,NA,USA,34.12030029,-119.1210022
EDW,Edwards Air Force Base,Edwards Afb,NA,USA,34.905399,-117.884003
LCH,Lake Charles Regional Airport,Lake Charles,NA,USA,30.12610054,-93.22329712
KOA,Ellison Onizuka Kona International At Keahole Airport,Kona,NA,USA,19.738783,-156.045603
MYR,Myrtle Beach International Airport,Myrtle Beach,NA,USA,33.67969894,-78.92829895
NLC,Lemoore Naval Air Station (Reeves Field) Airport,Lemoore,NA,USA,36.33300018,-119.9520035
ACK,Nantucket Memorial Airport,Nantucket,NA,USA,41.25310135,-70.06020355
FAF,Felker Army Air Field,Fort Eustis,NA,USA,37.13249969,-76.6088028
HOP,Campbell AAF (Fort Campbell) Air Field,Hopkinsville,NA,USA,36.66859818,-87.49620056
DCA,Ronald Reagan Washington National Airport,Washington,NA,USA,38.8521,-77.037697
NHK,Patuxent River Naval Air Station (Trapnell Field),Patuxent River,NA,USA,38.285999,-76.411797
PSX,Palacios Municipal Airport,Palacios,NA,USA,28.72750092,-96.25099945
BYH,Arkansas International Airport,Blytheville,NA,USA,35.96429825,-89.94400024
ACY,Atlantic City International Airport,Atlantic City,NA,USA,39.45759964,-74.57720184
TIK,Tinker Air Force Base,Oklahoma City,NA,USA,35.41469955,-97.38659668
ECG,Elizabeth City Regional Airport & Coast Guard Air Station,Elizabeth City,NA,USA,36.26060104,-76.17459869
PUB,Pueblo Memorial Airport,Pueblo,NA,USA,38.28910065,-104.4970016
PQI,Northern Maine Regional Airport at Presque Isle,Presque Isle,NA,USA,46.68899918,-68.0447998
IKR,Kirtland Air Force Base,Kirtland A.f.b.,NA,USA,35.040222,-106.609194
GRF,Gray Army Air Field,Fort Lewis,NA,USA,47.07920074,-122.5810013
ADQ,Kodiak Airport,Kodiak,NA,USA,57.75,-152.4940033
UPP,Upolu Airport,Opolu,NA,USA,20.26530075,-155.8600006
FLL,Fort Lauderdale Hollywood International Airport,Fort Lauderdale,NA,USA,26.072599,-80.152702
INL,Falls International Airport,International Falls,NA,USA,48.56620026,-93.40309906
SLC,Salt Lake City International Airport,Salt Lake City,NA,USA,40.78839874,-111.9779968
CDS,Childress Municipal Airport,Childress,NA,USA,34.43379974,-100.288002
BIX,Keesler Air Force Base,Biloxi,NA,USA,30.41040039,-88.92440033
LSF,Lawson Army Air Field (Fort Benning),Fort Benning,NA,USA,32.33729935,-84.99130249
NQI,Kingsville Naval Air Station,Kingsville,NA,USA,27.50720024,-97.80970001
FRI,Marshall Army Air Field,Fort Riley,NA,USA,39.05530167,-96.76450348
MDT,Harrisburg International Airport,Harrisburg,NA,USA,40.19350052,-76.76339722
LNK,Lincoln Airport,Lincoln,NA,USA,40.85100174,-96.75920105
LAN,Capital City Airport,Lansing,NA,USA,42.77870178,-84.58740234
MUE,Waimea Kohala Airport,Kamuela,NA,USA,20.00130081,-155.6679993
MSS,Massena International Richards Field,Massena,NA,USA,44.93579865,-74.84559631
HKY,Hickory Regional Airport,Hickory,NA,USA,35.74110031,-81.38950348
SPG,Albert Whitted Airport,St. Petersburg,NA,USA,27.7651,-82.626999
FMY,Page Field,Fort Myers,NA,USA,26.58659935,-81.86329651
IAH,George Bush Intercontinental Houston Airport,Houston,NA,USA,29.9843998,-95.34140015
ADW,Joint Base Andrews,Camp Springs,NA,USA,38.810799,-76.866997
INT,Smith Reynolds Airport,Winston-salem,NA,USA,36.13370132,-80.22200012
VCV,Southern California Logistics Airport,Victorville,NA,USA,34.59749985,-117.3830032
CEW,Bob Sikes Airport,Crestview,NA,USA,30.77879906,-86.52210236
PHN,St Clair County International Airport,Port Huron,NA,USA,42.9109993,-82.52890015
BFL,Meadows Field,Bakersfield,NA,USA,35.43360138,-119.0569992
ELP,El Paso International Airport,El Paso,NA,USA,31.80719948,-106.3779984
HRL,Valley International Airport,Harlingen,NA,USA,26.22850037,-97.65440369
CAE,Columbia Metropolitan Airport,Columbia,NA,USA,33.93880081,-81.11949921
DMA,Davis Monthan Air Force Base,Tucson,NA,USA,32.16650009,-110.8830032
NPA,Pensacola Naval Air Station/Forrest Sherman Field,Pensacola,NA,USA,30.35269928,-87.31860352
PNS,Pensacola Regional Airport,Pensacola,NA,USA,30.47340012,-87.18659973
RDR,Grand Forks Air Force Base,Red River,NA,USA,47.96110153,-97.40119934
HOU,William P Hobby Airport,Houston,NA,USA,29.64539909,-95.27890015
BFK,Buckley Air Force Base,Buckley,NA,USA,39.7016983,-104.7519989
ORT,Northway Airport,Northway,NA,USA,62.9612999,-141.9290009
PAQ,"Warren ""Bud"" Woods Palmer Municipal Airport",Palmer,NA,USA,61.594898,-149.08901
PIT,Pittsburgh International Airport,Pittsburgh,NA,USA,40.49150085,-80.23290253
BRW,Wiley Post Will Rogers Memorial Airport,Barrow,NA,USA,71.285402,-156.766008
EFD,Ellington Airport,Houston,NA,USA,29.6072998,-95.15879822
NUW,Whidbey Island Naval Air Station (Ault Field),Whidbey Island,NA,USA,48.351799,-122.655998
ALI,Alice International Airport,Alice,NA,USA,27.74090004,-98.02690125
VAD,Moody Air Force Base,Valdosta,NA,USA,30.96780014,-83.19300079
MIA,Miami International Airport,Miami,NA,USA,25.79319954,-80.29060364
SEA,Seattle Tacoma International Airport,Seattle,NA,USA,47.449001,-122.308998
CHA,Lovell Field,Chattanooga,NA,USA,35.03530121,-85.20379639
BDR,Igor I Sikorsky Memorial Airport,Stratford,NA,USA,41.16350174,-73.12619781
JAN,Jackson-Medgar Wiley Evers International Airport,Jackson,NA,USA,32.31119919,-90.07589722
GLS,Scholes International At Galveston Airport,Galveston,NA,USA,29.26530075,-94.86039734
LGB,Long Beach /Daugherty Field/ Airport,Long Beach,NA,USA,33.81769943,-118.1520004
HDH,Dillingham Airfield,Dillingham,NA,USA,21.5795002,-158.1970062
IPT,Williamsport Regional Airport,Williamsport,NA,USA,41.2417984,-76.9210968
IND,Indianapolis International Airport,Indianapolis,NA,USA,39.7173,-86.294403
SZL,Whiteman Air Force Base,Knobnoster,NA,USA,38.7303009,-93.54789734
AKC,Akron Fulton International Airport,Akron,NA,USA,41.03749847,-81.46690369
GWO,Greenwood–Leflore Airport,Greenwood,NA,USA,33.49430084,-90.08470154
HPN,Westchester County Airport,White Plains,NA,USA,41.06700134,-73.70760345
FOK,Francis S Gabreski Airport,West Hampton Beach,NA,USA,40.84370041,-72.63179779
JBR,Jonesboro Municipal Airport,Jonesboro,NA,USA,35.83169937,-90.64640045
XSD,Tonopah Test Range Airport,Tonopah,NA,USA,37.79880142,-116.7809982
LNA,Palm Beach County Park Airport,West Palm Beach,NA,USA,26.59300041,-80.08509827
NZY,North Island Naval Air Station-Halsey Field,San Diego,NA,USA,32.69919968,-117.2149963
BIF,Biggs Army Air Field (Fort Bliss),El Paso,NA,USA,31.84950066,-106.3799973
YUM,Yuma MCAS/Yuma International Airport,Yuma,NA,USA,32.65660095,-114.6060028
CNM,Cavern City Air Terminal,Carlsbad,NA,USA,32.33750153,-104.2630005
DLH,Duluth International Airport,Duluth,NA,USA,46.84209824,-92.19360352
BET,Bethel Airport,Bethel,NA,USA,60.77980042,-161.8379974
LOU,Bowman Field,Louisville,NA,USA,38.22800064,-85.66369629
FHU,Sierra Vista Municipal Libby Army Air Field,Fort Huachuca,NA,USA,31.58849907,-110.3440018
LIH,Lihue Airport,Lihue,NA,USA,21.97599983,-159.3390045
HUF,"Terre Haute Regional Airport, Hulman Field",Terre Haute,NA,USA,39.4515,-87.307602
HVR,Havre City County Airport,Havre,NA,USA,48.54299927,-109.762001
MWH,Grant County International Airport,Grant County Airport,NA,USA,47.20769882,-119.3199997
MPV,Edward F Knapp State Airport,Montpelier,NA,USA,44.20349884,-72.56230164
RIC,Richmond International Airport,Richmond,NA,USA,37.50519943,-77.31970215
SHV,Shreveport Regional Airport,Shreveport,NA,USA,32.446602,-93.8256
CDV,Merle K (Mudhole) Smith Airport,Cordova,NA,USA,60.4917984,-145.4779968
ORF,Norfolk International Airport,Norfolk,NA,USA,36.89459991,-76.20120239
BPT,Southeast Texas Regional Airport,Beaumont,NA,USA,29.95079994,-94.02069855
SAV,Savannah Hilton Head International Airport,Savannah,NA,USA,32.12760162,-81.20210266
HIF,Hill Air Force Base,Ogden,NA,USA,41.12403,-111.973086
OME,Nome Airport,Nome,NA,USA,64.5121994,-165.4450073
PIE,St Petersburg Clearwater International Airport,St. Petersburg,NA,USA,27.91020012,-82.68740082
MNM,Menominee Regional Airport,Macon,NA,USA,45.126701,-87.638397
CXO,Conroe-North Houston Regional Airport,Conroe,NA,USA,30.351801,-95.414497
SCC,Deadhorse Airport,Deadhorse,NA,USA,70.19470215,-148.4649963
SAT,San Antonio International Airport,San Antonio,NA,USA,29.53370094,-98.46980286
ROC,Greater Rochester International Airport,Rochester,NA,USA,43.1189003,-77.67240143
COF,Patrick Air Force Base,Coco Beach,NA,USA,28.23489952,-80.61009979
TEB,Teterboro Airport,Teterboro,NA,USA,40.85010147,-74.06079865
RCA,Ellsworth Air Force Base,Rapid City,NA,USA,44.14500046,-103.1039963
RDU,Raleigh Durham International Airport,Raleigh-durham,NA,USA,35.87760162,-78.78749847
DAY,James M Cox Dayton International Airport,Dayton,NA,USA,39.90240097,-84.2193985
ENA,Kenai Municipal Airport,Kenai,NA,USA,60.57310104,-151.2449951
MLC,Mc Alester Regional Airport,Mcalester,NA,USA,34.882401,-95.783501
IAG,Niagara Falls International Airport,Niagara Falls,NA,USA,43.1072998,-78.94619751
CFD,Coulter Field,Bryan,NA,USA,30.71570015,-96.33139801
LIY,Wright AAF (Fort Stewart)/Midcoast Regional Airport,Wright,NA,USA,31.889099,-81.562303
PHF,Newport News Williamsburg International Airport,Newport News,NA,USA,37.13190079,-76.49299622
ESF,Esler Regional Airport,Alexandria,NA,USA,31.39489937,-92.29579926
LTS,Altus Air Force Base,Altus,NA,USA,34.667099,-99.26670074
TUS,Tucson International Airport,Tucson,NA,USA,32.11610031,-110.9410019
MIB,Minot Air Force Base,Minot,NA,USA,48.4156,-101.358002
BAB,Beale Air Force Base,Marysville,NA,USA,39.13610077,-121.4369965
IKK,Greater Kankakee Airport,Kankakee,NA,USA,41.07139969,-87.84629822
GSB,Seymour Johnson Air Force Base,Goldsboro,NA,USA,35.33940125,-77.96060181
PVD,Theodore Francis Green State Airport,Providence,NA,USA,41.732601,-71.420403
SBY,Salisbury Ocean City Wicomico Regional Airport,Salisbury,NA,USA,38.34049988,-75.51029968
BUR,Bob Hope Airport,Burbank,NA,USA,34.20069885,-118.3590012
DTW,Detroit Metropolitan Wayne County Airport,Detroit,NA,USA,42.21239853,-83.35340118
TPA,Tampa International Airport,Tampa,NA,USA,27.97550011,-82.53320313
PMB,Pembina Municipal Airport,Pembina,NA,USA,48.94250107,-97.24079895
POE,Polk Army Air Field,Fort Polk,NA,USA,31.0447998,-93.1917038
EIL,Eielson Air Force Base,Fairbanks,NA,USA,64.66570282,-147.102005
HIB,Range Regional Airport,Hibbing,NA,USA,47.38660049,-92.83899689
LFK,Angelina County Airport,Lufkin,NA,USA,31.23399925,-94.75
MAF,Midland International Airport,Midland,NA,USA,31.94249916,-102.2020035
GRB,Austin Straubel International Airport,Green Bay,NA,USA,44.48509979,-88.12960052
ADM,Ardmore Municipal Airport,Ardmore,NA,USA,34.30301,-97.0196342
WRI,Mc Guire Air Force Base,Wrightstown,NA,USA,40.0155983,-74.59169769
AGS,Augusta Regional At Bush Field,Bush Field,NA,USA,33.36989975,-81.96450043
ISN,Sloulin Field International Airport,Williston,NA,USA,48.17789841,-103.6419983
LIT,Bill & Hillary Clinton National Airport/Adams Field,Little Rock,NA,USA,34.72940063,-92.22429657
SWF,Stewart International Airport,Newburgh,NA,USA,41.5041008,-74.10479736
BDE,Baudette International Airport,Baudette,NA,USA,48.72840118,-94.61219788
SAC,Sacramento Executive Airport,Sacramento,NA,USA,38.51250076,-121.4929962
HOM,Homer Airport,Homer,NA,USA,59.64559937,-151.477005
TBN,Waynesville-St. Robert Regional Forney field,Fort Leonardwood,NA,USA,37.74160004,-92.14070129
MGE,Dobbins Air Reserve Base,Marietta,NA,USA,33.91540146,-84.51629639
SKA,Fairchild Air Force Base,Spokane,NA,USA,47.61510086,-117.6559982
HTL,Roscommon County - Blodgett Memorial Airport,Houghton Lake,NA,USA,44.359798,-84.671095
PAM,Tyndall Air Force Base,Panama City,NA,USA,30.06959915,-85.57540131
DFW,Dallas Fort Worth International Airport,Dallas-Fort Worth,NA,USA,32.896801,-97.038002
MLB,Melbourne International Airport,Melbourne,NA,USA,28.10280037,-80.64530182
TCM,McChord Air Force Base,Tacoma,NA,USA,47.13769913,-122.4759979
AUS,Austin Bergstrom International Airport,Austin,NA,USA,30.19449997,-97.66989899
LCK,Rickenbacker International Airport,Columbus,NA,USA,39.813801,-82.927803
MQT,Sawyer International Airport,Gwinn,NA,USA,46.35359955,-87.395401
TYS,McGhee Tyson Airport,Knoxville,NA,USA,35.81100082,-83.9940033
HLR,Hood Army Air Field,Fort Hood,NA,USA,31.13870049,-97.71450043
STL,St Louis Lambert International Airport,St. Louis,NA,USA,38.748697,-90.370003
MIV,Millville Municipal Airport,Millville,NA,USA,39.367802,-75.072197
SPS,Sheppard Air Force Base-Wichita Falls Municipal Airport,Wichita Falls,NA,USA,33.9888,-98.491898
LUK,Cincinnati Municipal Airport Lunken Field,Cincinnati,NA,USA,39.10329819,-84.41860199
ATL,Hartsfield Jackson Atlanta International Airport,Atlanta,NA,USA,33.6367,-84.428101
MER,Castle Airport,Merced,NA,USA,37.38050079,-120.5680008
MCC,Mc Clellan Airfield,Sacramento,NA,USA,38.66759872,-121.401001
GRR,Gerald R. Ford International Airport,Grand Rapids,NA,USA,42.88079834,-85.52279663
INK,Winkler County Airport,Wink,NA,USA,31.77960014,-103.2009964
FAT,Fresno Yosemite International Airport,Fresno,NA,USA,36.77619934,-119.7180023
VRB,Vero Beach Regional Airport,Vero Beach,NA,USA,27.6556,-80.417901
IPL,Imperial County Airport,Imperial,NA,USA,32.83420181,-115.5790024
BNA,Nashville International Airport,Nashville,NA,USA,36.12450027,-86.67819977
LRD,Laredo International Airport,Laredo,NA,USA,27.54380035,-99.46160126
EDF,Elmendorf Air Force Base,Anchorage,NA,USA,61.25099945,-149.8070068
OTZ,Ralph Wien Memorial Airport,Kotzebue,NA,USA,66.88469696,-162.598999
AOO,Altoona Blair County Airport,Altoona,NA,USA,40.29639816,-78.31999969
DYS,Dyess Air Force Base,Abilene,NA,USA,32.42079926,-99.854599
ELD,South Arkansas Regional At Goodwin Field,El Dorado,NA,USA,33.22100067,-92.81330109
LGA,La Guardia Airport,New York,NA,USA,40.77719879,-73.87259674
TLH,Tallahassee Regional Airport,Tallahassee,NA,USA,30.39649963,-84.35030365
DPA,Dupage Airport,West Chicago,NA,USA,41.90779877,-88.24859619
ACT,Waco Regional Airport,Waco,NA,USA,31.61129951,-97.23049927
AUG,Augusta State Airport,Augusta,NA,USA,44.3205986,-69.79730225
NIP,Jacksonville Naval Air Station (Towers Field),Jacksonville,NA,USA,30.2358,-81.680603
MKL,McKellar-Sipes Regional Airport,Jackson,NA,USA,35.599899,-88.915604
MKK,Molokai Airport,Molokai,NA,USA,21.1529007,-157.095993
FTK,Godman Army Air Field,Fort Knox,NA,USA,37.90710068,-85.9720993
SJT,San Angelo Regional Mathis Field,San Angelo,NA,USA,31.35770035,-100.4960022
CXL,Calexico International Airport,Calexico,NA,USA,32.66949844,-115.5130005
CIC,Chico Municipal Airport,Chico,NA,USA,39.79539871,-121.8580017
BTV,Burlington International Airport,Burlington,NA,USA,44.47190094,-73.15329742
JAX,Jacksonville International Airport,Jacksonville,NA,USA,30.49410057,-81.68789673
DRO,Durango La Plata County Airport,Durango,NA,USA,37.1515007,-107.7539978
IAD,Washington Dulles International Airport,Washington,NA,USA,38.94449997,-77.45580292
CLL,Easterwood Field,College Station,NA,USA,30.58860016,-96.36380005
SFF,Felts Field,Spokane,NA,USA,47.68280029,-117.322998
MKE,General Mitchell International Airport,Milwaukee,NA,USA,42.94720078,-87.89659882
ABI,Abilene Regional Airport,Abilene,NA,USA,32.41130066,-99.68190002
COU,Columbia Regional Airport,Columbia,NA,USA,38.81809998,-92.21959686
PDX,Portland International Airport,Portland,NA,USA,45.58869934,-122.5979996
TNT,Dade Collier Training and Transition Airport,Miami,NA,USA,25.86179924,-80.89700317
PBI,Palm Beach International Airport,West Palm Beach,NA,USA,26.68320084,-80.09559631
FTW,Fort Worth Meacham International Airport,Fort Worth,NA,USA,32.819801,-97.362396
OGS,Ogdensburg International Airport,Ogdensburg,NA,USA,44.68190002,-75.46549988
FMH,Cape Cod Coast Guard Air Station,Falmouth,NA,USA,41.65840149,-70.52140045
BFI,Boeing Field King County International Airport,Seattle,NA,USA,47.52999878,-122.302002
SKF,Lackland Air Force Base,San Antonio,NA,USA,29.38419914,-98.58110046
HNL,Daniel K Inouye International Airport,Honolulu,NA,USA,21.32062,-157.924228
DSM,Des Moines International Airport,Des Moines,NA,USA,41.5340004,-93.6631012
EWN,Coastal Carolina Regional Airport,New Bern,NA,USA,35.07300186,-77.04290009
SAN,San Diego International Airport,San Diego,NA,USA,32.73360062,-117.1900024
MLU,Monroe Regional Airport,Monroe,NA,USA,32.51089859,-92.03769684
SSC,Shaw Air Force Base,Sumter,NA,USA,33.97269821,-80.47059631
ONT,Ontario International Airport,Ontario,NA,USA,34.05599976,-117.6009979
GVT,Majors Airport,Greenvile,NA,USA,33.06779861,-96.06529999
ROW,Roswell International Air Center Airport,Roswell,NA,USA,33.30160141,-104.5309982
DET,Coleman A. Young Municipal Airport,Detroit,NA,USA,42.40919876,-83.00990295
BRO,Brownsville South Padre Island International Airport,Brownsville,NA,USA,25.90679932,-97.42590332
DHN,Dothan Regional Airport,Dothan,NA,USA,31.32130051,-85.44960022
WWD,Cape May County Airport,Wildwood,NA,USA,39.00849915,-74.90830231
NFL,Fallon Naval Air Station,Fallon,NA,USA,39.41659927,-118.7009964
MTC,Selfridge Air National Guard Base Airport,Mount Clemens,NA,USA,42.613463,-82.836919
FMN,Four Corners Regional Airport,Farmington,NA,USA,36.74119949,-108.2300034
CRP,Corpus Christi International Airport,Corpus Christi,NA,USA,27.77039909,-97.50119781
SYR,Syracuse Hancock International Airport,Syracuse,NA,USA,43.11119843,-76.10630035
NQX,Naval Air Station Key West/Boca Chica Field,Key West,NA,USA,24.57579994,-81.68890381
MDW,Chicago Midway International Airport,Chicago,NA,USA,41.785999,-87.752403
SJC,Norman Y. Mineta San Jose International Airport,San Jose,NA,USA,37.362598,-121.929001
HOB,Lea County Regional Airport,Hobbs,NA,USA,32.6875,-103.2170029
PNE,Northeast Philadelphia Airport,Philadelphia,NA,USA,40.081902,-75.010597
DEN,Denver International Airport,Denver,NA,USA,39.86169815,-104.6729965
PHL,Philadelphia International Airport,Philadelphia,NA,USA,39.87189865,-75.2410965
SUX,Sioux Gateway Col. Bud Day Field,Sioux City,NA,USA,42.40259933,-96.38439941
MCN,Middle Georgia Regional Airport,Macon,NA,USA,32.69279861,-83.64920044
TCS,Truth Or Consequences Municipal Airport,Truth Or Consequences,NA,USA,33.23690033,-107.2720032
PMD,Palmdale Regional/USAF Plant 42 Airport,Palmdale,NA,USA,34.62939835,-118.0849991
RND,Randolph Air Force Base,San Antonio,NA,USA,29.52969933,-98.27890015
NJK,El Centro NAF Airport (Vraciu Field),El Centro,NA,USA,32.829201,-115.671996
CMH,John Glenn Columbus International Airport,Columbus,NA,USA,39.998001,-82.891899
FYV,Drake Field,Fayetteville,NA,USA,36.00510025,-94.17009735
FSI,Henry Post Army Air Field (Fort Sill),Fort Sill,NA,USA,34.64979935,-98.40219879
FFO,Wright-Patterson Air Force Base,Dayton,NA,USA,39.8260994,-84.0483017
GAL,Edward G. Pitka Sr Airport,Galena,NA,USA,64.73619843,-156.9369965
MWL,Mineral Wells Airport,Mineral Wells,NA,USA,32.78160095,-98.06020355
IAB,Mc Connell Air Force Base,Wichita,NA,USA,37.62189865,-97.26820374
NBG,New Orleans NAS JRB/Alvin Callender Field,New Orleans,NA,USA,29.82530022,-90.03500366
BFT,Beaufort County Airport,Beaufort,NA,USA,32.41220093,-80.63439941
TXK,Texarkana Regional Webb Field,Texarkana,NA,USA,33.45370102,-93.99099731
PBG,Plattsburgh International Airport,Plattsburgh,NA,USA,44.65090179,-73.4681015
APG,Phillips Army Air Field,Aberdeen,NA,USA,39.466202,-76.1688
TCC,Tucumcari Municipal Airport,Tucumcari,NA,USA,35.18280029,-103.6029968
ANC,Ted Stevens Anchorage International Airport,Anchorage,NA,USA,61.17440033,-149.9960022
GRK,Robert Gray  Army Air Field Airport,Killeen,NA,USA,31.06719971,-97.8289032
BLI,Bellingham International Airport,Bellingham,NA,USA,48.7928009,-122.538002
NQA,Millington-Memphis Airport,Millington,NA,USA,35.356701,-89.8703
EKN,Elkins-Randolph Co-Jennings Randolph Field,Elkins,NA,USA,38.88940048,-79.85710144
HFD,Hartford Brainard Airport,Hartford,NA,USA,41.73669815,-72.6493988
SFZ,North Central State Airport,Smithfield,NA,USA,41.92079926,-71.49140167
MOB,Mobile Regional Airport,Mobile,NA,USA,30.69120026,-88.24279785
NUQ,Moffett Federal Airfield,Mountain View,NA,USA,37.4161,-122.049004
SAF,Santa Fe Municipal Airport,Santa Fe,NA,USA,35.61709976,-106.0889969
BKH,Barking Sands Airport,Barking Sands,NA,USA,22.02280045,-159.7850037
DRI,Beauregard Regional Airport,Deridder,NA,USA,30.83169937,-93.33989716
BSF,Bradshaw Army Airfield,Bradshaw Field,NA,USA,19.76009941,-155.5540009
OLS,Nogales International Airport,Nogales,NA,USA,31.4177,-110.848
MCF,Mac Dill Air Force Base,Tampa,NA,USA,27.84930038,-82.52120209
BLV,Scott AFB/Midamerica Airport,Belleville,NA,USA,38.5452,-89.835197
OPF,Opa-locka Executive Airport,Miami,NA,USA,25.907,-80.278397
DRT,Del Rio International Airport,Del Rio,NA,USA,29.37420082,-100.927002
RSW,Southwest Florida International Airport,Fort Myers,NA,USA,26.53619957,-81.75520325
AKN,King Salmon Airport,King Salmon,NA,USA,58.67679977,-156.6490021
MUI,Muir Army Air Field (Fort Indiantown Gap) Airport,Muir,NA,USA,40.434799,-76.569397
JHM,Kapalua Airport,Lahania-kapalua,NA,USA,20.96290016,-156.6730042
JFK,John F Kennedy International Airport,New York,NA,USA,40.63980103,-73.77890015
HST,Homestead ARB Airport,Homestead,NA,USA,25.48859978,-80.38359833
RAL,Riverside Municipal Airport,Riverside,NA,USA,33.95190048,-117.4449997
FLV,Sherman Army Air Field,Fort Leavenworth,NA,USA,39.36830139,-94.91470337
WAL,Wallops Flight Facility Airport,Wallops Island,NA,USA,37.94020081,-75.46640015
HMN,Holloman Air Force Base,Alamogordo,NA,USA,32.85250092,-106.1070023
NXX,Willow Grove Naval Air Station/Joint Reserve Base,Willow Grove,NA,USA,40.19979858,-75.14820099
CYS,Cheyenne Regional Jerry Olson Field,Cheyenne,NA,USA,41.15570068,-104.8119965
SCK,Stockton Metropolitan Airport,Stockton,NA,USA,37.89419937,-121.237999
CHS,Charleston Air Force Base-International Airport,Charleston,NA,USA,32.89860153,-80.04049683
RNO,Reno Tahoe International Airport,Reno,NA,USA,39.49909973,-119.7679977
KTN,Ketchikan International Airport,Ketchikan,NA,USA,55.35559845,-131.7140045
YIP,Willow Run Airport,Detroit,NA,USA,42.23789978,-83.53040314
VBG,Vandenberg Air Force Base,Lompoc,NA,USA,34.73730087,-120.5839996
BHM,Birmingham-Shuttlesworth International Airport,Birmingham,NA,USA,33.56290054,-86.75350189
NEL,Lakehurst Maxfield Field Airport,Lakehurst,NA,USA,40.03329849,-74.353302
SYA,Eareckson Air Station,Shemya,NA,USA,52.71229935,174.1139984
LSV,Nellis Air Force Base,Las Vegas,NA,USA,36.23619843,-115.0339966
RIV,March ARB Airport,Riverside,NA,USA,33.880699,-117.259003
MOD,Modesto City Co-Harry Sham Field,Modesto,NA,USA,37.62580109,-120.9540024
SMF,Sacramento International Airport,Sacramento,NA,USA,38.69540024,-121.5910034
UGN,Waukegan National Airport,Chicago,NA,USA,42.42219925,-87.86789703
COS,City of Colorado Springs Municipal Airport,Colorado Springs,NA,USA,38.805801,-104.700996
BUF,Buffalo Niagara International Airport,Buffalo,NA,USA,42.94049835,-78.73220062
SKY,Griffing Sandusky Airport,Sandusky,NA,USA,41.4333992,-82.65229797
PAE,Snohomish County (Paine Field) Airport,Everett,NA,USA,47.90629959,-122.2819977
MUO,Mountain Home Air Force Base,Mountain Home,NA,USA,43.043598,-115.872002
CDC,Cedar City Regional Airport,Cedar City,NA,USA,37.70100021,-113.098999
BDL,Bradley International Airport,Windsor Locks,NA,USA,41.93889999,-72.68319702
MFE,Mc Allen Miller International Airport,Mcallen,NA,USA,26.17580032,-98.23860168
NGU,Norfolk Naval Station (Chambers Field),Norfolk,NA,USA,36.937599,-76.289299
CEF,Westover ARB/Metropolitan Airport,Chicopee Falls,NA,USA,42.19400024,-72.53479767
LBB,Lubbock Preston Smith International Airport,Lubbock,NA,USA,33.663601,-101.822998
ORD,Chicago OHare International Airport,Chicago,NA,USA,41.9786,-87.9048
BCT,Boca Raton Airport,Boca Raton,NA,USA,26.37849998,-80.10769653
FAI,Fairbanks International Airport,Fairbanks,NA,USA,64.81510162,-147.8560028
CVS,Cannon Air Force Base,Clovis,NA,USA,34.38280106,-103.3219986
NGF,Kaneohe Bay MCAS (Marion E. Carl Field) Airport,Kaneohe Bay,NA,USA,21.45050049,-157.7680054
OFF,Offutt Air Force Base,Omaha,NA,USA,41.11830139,-95.91249847
GKN,Gulkana Airport,Gulkana,NA,USA,62.1548996,-145.4570007
ART,Watertown International Airport,Watertown,NA,USA,43.9919014,-76.021698
PSP,Palm Springs International Airport,Palm Springs,NA,USA,33.82970047,-116.5070038
AMA,Rick Husband Amarillo International Airport,Amarillo,NA,USA,35.219398,-101.706001
FOD,Fort Dodge Regional Airport,Fort Dodge,NA,USA,42.55149841,-94.19259644
BAD,Barksdale Air Force Base,Shreveport,NA,USA,32.50180054,-93.66269684
FOE,Topeka Regional Airport - Forbes Field,Topeka,NA,USA,38.95090103,-95.66359711
COT,Cotulla-La Salle County Airport,Cotulla,NA,USA,28.45669937,-99.22029877
ILM,Wilmington International Airport,Wilmington,NA,USA,34.27059937,-77.90260315
BTR,Baton Rouge Metropolitan Airport,Baton Rouge,NA,USA,30.533199,-91.149597
TYR,Tyler Pounds Regional Airport,Tyler,NA,USA,32.35409927,-95.40239716
BWI,Baltimore/Washington International Thurgood Marshall Airport,Baltimore,NA,USA,39.1754,-76.668297
HBR,Hobart Regional Airport,Hobart,NA,USA,34.991317,-99.051313
LNY,Lanai Airport,Lanai,NA,USA,20.78560066,-156.951004
AEX,Alexandria International Airport,Alexandria,NA,USA,31.32740021,-92.54979706
WSD,Condron Army Air Field,White Sands,NA,USA,32.34149933,-106.4029999
CDB,Cold Bay Airport,Cold Bay,NA,USA,55.20610046,-162.7250061
TUL,Tulsa International Airport,Tulsa,NA,USA,36.19839859,-95.88809967
SIT,Sitka Rocky Gutierrez Airport,Sitka,NA,USA,57.04710007,-135.3619995
ISP,Long Island Mac Arthur Airport,Islip,NA,USA,40.79520035,-73.10019684
MSP,Minneapolis-St Paul International/Wold-Chamberlain Airport,Minneapolis,NA,USA,44.882,-93.221802
ILG,New Castle Airport,Wilmington,NA,USA,39.67869949,-75.60649872
DUT,Unalaska Airport,Unalaska,NA,USA,53.90010071,-166.5440063
MSY,Louis Armstrong New Orleans International Airport,New Orleans,NA,USA,29.99340057,-90.25800323
PWM,Portland International Jetport Airport,Portland,NA,USA,43.64619827,-70.30930328
OKC,Will Rogers World Airport,Oklahoma City,NA,USA,35.39310074,-97.60070038
ALB,Albany International Airport,Albany,NA,USA,42.74829865,-73.80169678
VDZ,Valdez Pioneer Field,Valdez,NA,USA,61.13389969,-146.2480011
LFI,Langley Air Force Base,Hampton,NA,USA,37.082901,-76.36049652
SNA,John Wayne Airport-Orange County Airport,Santa Ana,NA,USA,33.67570114,-117.8679962
CBM,Columbus Air Force Base,Colombus,NA,USA,33.64379883,-88.44380188
TMB,Kendall-Tamiami Executive Airport,Kendall-tamiami,NA,USA,25.64789963,-80.43280029
NTU,Oceana Naval Air Station,Oceana,NA,USA,36.820702,-76.033501
GUS,Grissom Air Reserve Base,Peru,NA,USA,40.64810181,-86.15209961
CPR,Casper-Natrona County International Airport,Casper,NA,USA,42.908001,-106.463997
VPS,Destin-Ft Walton Beach Airport,Valparaiso,NA,USA,30.4832,-86.525398
SEM,Craig Field,Selma,NA,USA,32.34389877,-86.9878006
EYW,Key West International Airport,Key West,NA,USA,24.55610085,-81.75959778
CLT,Charlotte Douglas International Airport,Charlotte,NA,USA,35.2140007,-80.94309998
LAS,McCarran International Airport,Las Vegas,NA,USA,36.08010101,-115.1520004
MCO,Orlando International Airport,Orlando,NA,USA,28.42939949,-81.30899811
FLO,Florence Regional Airport,Florence,NA,USA,34.1853981,-79.72389984
GTF,Great Falls International Airport,Great Falls,NA,USA,47.48199844,-111.3710022
YNG,Youngstown Warren Regional Airport,Youngstown,NA,USA,41.26070023,-80.67910004
FBK,Ladd AAF Airfield,Fort Wainwright,NA,USA,64.83750153,-147.6139984
WRB,Robins Air Force Base,Macon,NA,USA,32.64009857,-83.59190369
PUW,Pullman Moscow Regional Airport,Pullman,NA,USA,46.7439,-117.110001
LWS,Lewiston Nez Perce County Airport,Lewiston,NA,USA,46.37450027,-117.0149994
ELM,Elmira Corning Regional Airport,Elmira,NA,USA,42.15990067,-76.89160156
ITH,Ithaca Tompkins Regional Airport,Ithaca,NA,USA,42.49100113,-76.45839691
MRY,Monterey Peninsula Airport,Monterey,NA,USA,36.5870018,-121.8430023
SBA,Santa Barbara Municipal Airport,Santa Barbara,NA,USA,34.42620087,-119.8399963
DAB,Daytona Beach International Airport,Daytona Beach,NA,USA,29.179899,-81.058098
JRB,Downtown-Manhattan/Wall St Heliport,New York,NA,USA,40.70119858,-74.00900269
TKA,Talkeetna Airport,Talkeetna,NA,USA,62.32049942,-150.0939941
HVN,Tweed New Haven Airport,New Haven,NA,USA,41.26369858,-72.88680267
AVL,Asheville Regional Airport,Asheville,NA,USA,35.43619919,-82.54180145
GSO,Piedmont Triad International Airport,Greensboro,NA,USA,36.09780121,-79.93730164
FSD,Joe Foss Field Airport,Sioux Falls,NA,USA,43.58200073,-96.74189758
MHT,Manchester-Boston Regional Airport,Manchester NH,NA,USA,42.932598,-71.435699
APF,Naples Municipal Airport,Naples,NA,USA,26.15259933,-81.77529907
SDF,Louisville International Standiford Field,Louisville,NA,USA,38.1744,-85.736
CHO,Charlottesville Albemarle Airport,Charlottesville VA,NA,USA,38.1385994,-78.45290375
ROA,Roanoke–Blacksburg Regional Airport,Roanoke VA,NA,USA,37.3255,-79.975403
LEX,Blue Grass Airport,Lexington KY,NA,USA,38.03649902,-84.60590363
EVV,Evansville Regional Airport,Evansville,NA,USA,38.03699875,-87.53240204
ABQ,Albuquerque International Sunport,Albuquerque,NA,USA,35.040199,-106.609001
BZN,Gallatin Field,Bozeman,NA,USA,45.77750015,-111.1529999
BIL,Billings Logan International Airport,Billings,NA,USA,45.80770111,-108.5429993
BTM,Bert Mooney Airport,Butte,NA,USA,45.95479965,-112.4970016
TVC,Cherry Capital Airport,Traverse City,NA,USA,44.74140167,-85.5821991
BHB,Hancock County-Bar Harbor Airport,Bar Harbor,NA,USA,44.45000076,-68.3615036
RKD,Knox County Regional Airport,Rockland,NA,USA,44.06010056,-69.09919739
JAC,Jackson Hole Airport,Jacksn Hole,NA,USA,43.6072998,-110.737999
RFD,Chicago Rockford International Airport,Rockford,NA,USA,42.19540024,-89.09719849
TSS,East 34th Street Heliport,New York,NA,USA,40.7425,-73.971944
GSP,Greenville Spartanburg International Airport,Greenville,NA,USA,34.89569855,-82.21890259
BMI,Central Illinois Regional Airport at Bloomington-Normal,Bloomington,NA,USA,40.47710037,-88.91590118
GPT,Gulfport Biloxi International Airport,Gulfport,NA,USA,30.40730095,-89.07009888
AZO,Kalamazoo Battle Creek International Airport,Kalamazoo,NA,USA,42.23490143,-85.55210114
TOL,Toledo Express Airport,Toledo,NA,USA,41.58679962,-83.80780029
FWA,Fort Wayne International Airport,Fort Wayne,NA,USA,40.97850037,-85.19509888
DEC,Decatur Airport,Decatur,NA,USA,39.83459854,-88.86569977
CID,The Eastern Iowa Airport,Cedar Rapids,NA,USA,41.88470078,-91.71080017
LSE,La Crosse Municipal Airport,La Crosse,NA,USA,43.879002,-91.256699
CWA,Central Wisconsin Airport,Wassau,NA,USA,44.77759933,-89.66680145
PIA,General Wayne A. Downing Peoria International Airport,Peoria,NA,USA,40.66419983,-89.69329834
ATW,Appleton International Airport,Appleton,NA,USA,44.2580986,-88.51909637
RST,Rochester International Airport,Rochester,NA,USA,43.90829849,-92.5
CMI,University of Illinois Willard Airport,Champaign,NA,USA,40.03919983,-88.27809906
MHK,Manhattan Regional Airport,Manhattan,NA,USA,39.14099884,-96.67079926
FKL,Venango Regional Airport,Franklin,NA,USA,41.37789917,-79.86039734
GJT,Grand Junction Regional Airport,Grand Junction,NA,USA,39.12239838,-108.5270004
SGU,St George Municipal Airport,Saint George,NA,USA,37.036389,-113.510306
DWH,David Wayne Hooks Memorial Airport,Houston,NA,USA,30.0618,-95.55280304
SRQ,Sarasota Bradenton International Airport,Sarasota,NA,USA,27.39539909,-82.55439758
X21,Arthur Dunn Airpark,Titusville,NA,USA,28.622552,-80.83541
VNY,Van Nuys Airport,Van Nuys,NA,USA,34.20980072,-118.4899979
MLI,Quad City International Airport,Moline,NA,USA,41.44850159,-90.50749969
PFN,Panama City-Bay Co International Airport,Panama City,NA,USA,30.212099,-85.6828
DWS,Orlando,Orlando,NA,USA,28.398,-81.57
BIS,Bismarck Municipal Airport,Bismarck,NA,USA,46.77270126,-100.7460022
TEX,Telluride Regional Airport,Telluride,NA,USA,37.9538002,-107.9079971
RAP,Rapid City Regional Airport,Rapid City,NA,USA,44.04529953,-103.0569992
CLD,Mc Clellan-Palomar Airport,Carlsbad,NA,USA,33.12829971,-117.2799988
FNT,Bishop International Airport,Flint,NA,USA,42.9654007,-83.74359894
RDD,Redding Municipal Airport,Redding,NA,USA,40.50899887,-122.2929993
EUG,Mahlon Sweet Field,Eugene,NA,USA,44.12459946,-123.211998
IDA,Idaho Falls Regional Airport,Idaho Falls,NA,USA,43.514599,-112.070999
MFR,Rogue Valley International Medford Airport,Medford,NA,USA,42.37419891,-122.8730011
RDM,Roberts Field,Redmond-Bend,NA,USA,44.2541008,-121.1500015
CAK,Akron Canton Regional Airport,Akron,NA,USA,40.91609955,-81.44219971
HSV,Huntsville International Carl T Jones Field,Huntsville,NA,USA,34.6371994,-86.77510071
PKB,Mid Ohio Valley Regional Airport,PARKERSBURG,NA,USA,39.3451004,-81.43920135
MGM,Montgomery Regional (Dannelly Field) Airport,MONTGOMERY,NA,USA,32.30059814,-86.39399719
TRI,Tri-Cities Regional TN/VA Airport,BRISTOL,NA,USA,36.475201,-82.407401
PAH,Barkley Regional Airport,PADUCAH,NA,USA,37.06079865,-88.77380371
PGA,Page Municipal Airport,Page,NA,USA,36.92610168,-111.447998
FCA,Glacier Park International Airport,Kalispell,NA,USA,48.3105011,-114.2559967
MBS,MBS International Airport,Saginaw,NA,USA,43.53290176,-84.07959747
BGM,Greater Binghamton/Edwin A Link field,Binghamton,NA,USA,42.20869827,-75.97979736
BLH,Blythe Airport,Blythe,NA,USA,33.61920166,-114.7170029
PSG,Petersburg James A Johnson Airport,Petersburg,NA,USA,56.80170059,-132.9450073
SFB,Orlando Sanford International Airport,Sanford,NA,USA,28.77759933,-81.23750305
JST,John Murtha Johnstown Cambria County Airport,Johnstown,NA,USA,40.31610107,-78.83390045
MSO,Missoula International Airport,Missoula,NA,USA,46.91630173,-114.0910034
GCN,Grand Canyon National Park Airport,Grand Canyon,NA,USA,35.95240021,-112.1470032
SGR,Sugar Land Regional Airport,Sugar Land,NA,USA,29.62229919,-95.65650177
APA,Centennial Airport,Denver,NA,USA,39.57009888,-104.848999
CVN,Clovis Municipal Airport,Clovis,NA,USA,34.42509842,-103.0790024
FST,Fort Stockton Pecos County Airport,Fort Stockton,NA,USA,30.91570091,-102.9160004
LVS,Las Vegas Municipal Airport,Las Vegas,NA,USA,35.65420151,-105.1419983
IWS,West Houston Airport,Houston,NA,USA,29.81819916,-95.67259979
LRU,Las Cruces International Airport,Las Cruces,NA,USA,32.28939819,-106.9219971
BKD,Stephens County Airport,Breckenridge,NA,USA,32.71900177,-98.89099884
TPL,Draughon Miller Central Texas Regional Airport,Temple,NA,USA,31.15250015,-97.40779877
OZA,Ozona Municipal Airport,Ozona,NA,USA,30.73530006,-101.2030029
EGE,Eagle County Regional Airport,Vail,NA,USA,39.64260101,-106.9179993
CGF,Cuyahoga County Airport,Richmond Heights,NA,USA,41.56510162,-81.48639679
MFD,Mansfield Lahm Regional Airport,Mansfield,NA,USA,40.82139969,-82.51660156
CSG,Columbus Metropolitan Airport,Columbus,NA,USA,32.5163002,-84.93890381
LAW,Lawton Fort Sill Regional Airport,Lawton,NA,USA,34.56769943,-98.41660309
FNL,Northern Colorado Regional Airport,Fort Collins,NA,USA,40.451804,-105.011
FLG,Flagstaff Pulliam Airport,Flagstaff,NA,USA,35.13850021,-111.6709976
TVL,Lake Tahoe Airport,South Lake Tahoe,NA,USA,38.89390182,-119.9950027
TWF,Joslin Field Magic Valley Regional Airport,Twin Falls,NA,USA,42.4818,-114.487999
MVY,Martha's Vineyard Airport,Vineyard Haven MA,NA,USA,41.39310074,-70.61430359
UUU,Newport State,Newport RI,NA,USA,41.533056,-71.282222
VSF,Hartness State,Springfield VT,NA,USA,43.343333,-72.517222
CON,Concord Municipal Airport,Concord NH,NA,USA,43.20270157,-71.50229645
SFM,Sanford Regional,Sanford ME,NA,USA,43.39383,-70.708
GON,Groton New London Airport,Groton CT,NA,USA,41.33010101,-72.04509735
STC,St Cloud Regional Airport,Saint Cloud,NA,USA,45.54660034,-94.05989838
GTR,Golden Triangle Regional Airport,Columbus Mississippi,NA,USA,33.45029831,-88.59140015
HQM,Bowerman Airport,Hoquiam,NA,USA,46.97119904,-123.9369965
ERI,Erie International Tom Ridge Field,Erie,NA,USA,42.08312701,-80.17386675
HYA,Barnstable Municipal Boardman Polando Field,Barnstable,NA,USA,41.66930008,-70.28040314
SDX,Sedona Airport,Sedona,NA,USA,34.84859848,-111.788002
MGW,Morgantown Municipal Walter L. Bill Hart Field,Morgantown,NA,USA,39.64289856,-79.91629791
CRW,Yeager Airport,Charleston,NA,USA,38.37310028,-81.59320068
AVP,Wilkes Barre Scranton International Airport,Scranton,NA,USA,41.33850098,-75.7233963
BJI,Bemidji Regional Airport,Bemidji,NA,USA,47.50939941,-94.93370056
FAR,Hector International Airport,Fargo,NA,USA,46.92070007,-96.81580353
MKC,Charles B. Wheeler Downtown Airport,Kansas City,NA,USA,39.12319946,-94.59279633
GCC,Gillette Campbell County Airport,Gillette,NA,USA,44.34889984,-105.5390015
NZJ,El Toro Marine Corps Air Station,Santa Ana,NA,USA,33.67610168,-117.7310028
SCE,University Park Airport,State College Pennsylvania,NA,USA,40.84930038,-77.84870148
MEI,Key Field,Meridian,NA,USA,32.33259964,-88.75189972
SPI,Abraham Lincoln Capital Airport,Springfield,NA,USA,39.84410095,-89.67790222
CEZ,Cortez Municipal Airport,Cortez,NA,USA,37.3030014,-108.6279984
HDN,Yampa Valley Airport,Hayden,NA,USA,40.48120117,-107.2180023
GUP,Gallup Municipal Airport,Gallup,NA,USA,35.51110077,-108.7890015
LBL,Liberal Mid-America Regional Airport,Liberal,NA,USA,37.0442009,-100.9599991
LAA,Lamar Municipal Airport,Lamar,NA,USA,38.06969833,-102.6880035
GLD,Renner Field-Goodland Municipal Airport,Goodland,NA,USA,39.37060165,-101.6989975
COD,Yellowstone Regional Airport,Cody,NA,USA,44.52019882,-109.0240021
SGF,Springfield Branson National Airport,Springfield,NA,USA,37.24570084,-93.38860321
JLN,Joplin Regional Airport,Joplin,NA,USA,37.15179825,-94.49829865
ABE,Lehigh Valley International Airport,Allentown,NA,USA,40.65209961,-75.44080353
XNA,Northwest Arkansas Regional Airport,Bentonville,NA,USA,36.281898,-94.306801
SBN,South Bend Regional Airport,South Bend,NA,USA,41.70869827,-86.31729889
SMD,Smith Field,Fort Wayne IN,NA,USA,41.14339828,-85.15280151
ACV,California Redwood Coast-Humboldt County Airport,Arcata CA,NA,USA,40.978101,-124.109
ATT,Camp Mabry Austin City,Austin TX,NA,USA,30.31666,-97.7666
OAJ,Albert J Ellis Airport,Jacksonville NC,NA,USA,34.82920074,-77.61209869
TCL,Tuscaloosa Regional Airport,Tuscaloosa AL,NA,USA,33.22060013,-87.61139679
DBQ,Dubuque Regional Airport,Dubuque IA,NA,USA,42.40200043,-90.70950317
ABR,Aberdeen Regional Airport,Aberdeen,NA,USA,45.44910049,-98.42179871
ABY,Southwest Georgia Regional Airport,Albany,NA,USA,31.53549957,-84.19450378
AHN,Athens Ben Epps Airport,Athens,NA,USA,33.94860077,-83.32630157
ALM,Alamogordo White Sands Regional Airport,Alamogordo,NA,USA,32.83990097,-105.9909973
ALO,Waterloo Regional Airport,Waterloo,NA,USA,42.55709839,-92.40029907
ALW,Walla Walla Regional Airport,Walla Walla,NA,USA,46.09489822,-118.288002
APN,Alpena County Regional Airport,Alpena,NA,USA,45.0780983,-83.56030273
ATY,Watertown Regional Airport,Watertown,NA,USA,44.91400146,-97.15470123
BFD,Bradford Regional Airport,Bradford,NA,USA,41.80310059,-78.64009857
BFF,Western Neb. Rgnl/William B. Heilig Airport,Scottsbluff,NA,USA,41.87400055,-103.5960007
BKW,Raleigh County Memorial Airport,Beckley,NA,USA,37.78730011,-81.12419891
BQK,Brunswick Golden Isles Airport,Brunswick,NA,USA,31.25880051,-81.46649933
BRL,Southeast Iowa Regional Airport,Burlington,NA,USA,40.78319931,-91.12550354
CEC,Jack Mc Namara Field Airport,Crescent City,NA,USA,41.78020096,-124.2369995
CGI,Cape Girardeau Regional Airport,Cape Girardeau,NA,USA,37.22529984,-89.57080078
CIU,Chippewa County International Airport,Sault Ste Marie,NA,USA,46.25080109,-84.47239685
CKB,North Central West Virginia Airport,Clarksburg,NA,USA,39.29660034,-80.22810364
CLM,William R Fairchild International Airport,Port Angeles,NA,USA,48.12020111,-123.5
CMX,Houghton County Memorial Airport,Hancock,NA,USA,47.16839981,-88.4890976
DDC,Dodge City Regional Airport,Dodge City,NA,USA,37.76340103,-99.96559906
DUJ,DuBois Regional Airport,Du Bois,NA,USA,41.17829895,-78.8986969
EAU,Chippewa Valley Regional Airport,Eau Claire,NA,USA,44.86579895,-91.48429871
EKO,Elko Regional Airport,Elko,NA,USA,40.82490158,-115.7919998
EWB,New Bedford Regional Airport,New Bedford,NA,USA,41.67610168,-70.95690155
FAY,Fayetteville Regional Grannis Field,Fayetteville,NA,USA,34.99119949,-78.88030243
GGW,Wokal Field Glasgow International Airport,Glasgow,NA,USA,48.212502,-106.614998
GRI,Central Nebraska Regional Airport,Grand Island,NA,USA,40.96749878,-98.30960083
HOT,Memorial Field,Hot Springs,NA,USA,34.47800064,-93.09619904
HTS,Tri-State/Milton J. Ferguson Field,Huntington,NA,USA,38.36669922,-82.55799866
IRK,Kirksville Regional Airport,Kirksville,NA,USA,40.09349823,-92.54489899
JMS,Jamestown Regional Airport,Jamestown,NA,USA,46.92969894,-98.67819977
LAR,Laramie Regional Airport,Laramie,NA,USA,41.31209946,-105.6750031
LBE,Arnold Palmer Regional Airport,Latrobe,NA,USA,40.27590179,-79.40480042
LBF,North Platte Regional Airport Lee Bird Field,North Platte,NA,USA,41.12620163,-100.6839981
LEB,Lebanon Municipal Airport,Lebanon,NA,USA,43.62609863,-72.30419922
LMT,Crater Lake-Klamath Regional Airport,Klamath Falls,NA,USA,42.156101,-121.733002
LNS,Lancaster Airport,Lancaster,NA,USA,40.12170029,-76.2960968
LWT,Lewistown Municipal Airport,Lewistown,NA,USA,47.04930115,-109.4670029
LYH,Lynchburg Regional Preston Glenn Field,Lynchburg,NA,USA,37.3266983,-79.20040131
MKG,Muskegon County Airport,Muskegon,NA,USA,43.16949844,-86.23819733
MLS,Frank Wiley Field,Miles City,NA,USA,46.4280014,-105.8860016
MSL,Northwest Alabama Regional Airport,Muscle Shoals,NA,USA,34.74530029,-87.61019897
OTH,Southwest Oregon Regional Airport,North Bend,NA,USA,43.417099,-124.2460022
OWB,Owensboro Daviess County Airport,Owensboro,NA,USA,37.74010086,-87.16680145
PIB,Hattiesburg Laurel Regional Airport,Hattiesburg/Laurel,NA,USA,31.46710014,-89.33709717
PIH,Pocatello Regional Airport,Pocatello,NA,USA,42.90980148,-112.5960007
PIR,Pierre Regional Airport,Pierre,NA,USA,44.38270187,-100.2860031
PLN,Pellston Regional Airport of Emmet County Airport,Pellston,NA,USA,45.57089996,-84.79669952
PSM,Portsmouth International at Pease Airport,Portsmouth,NA,USA,43.07789993,-70.82330322
RDG,Reading Regional Carl A Spaatz Field,Reading,NA,USA,40.37850189,-75.96520233
RHI,Rhinelander Oneida County Airport,Rhinelander,NA,USA,45.63119888,-89.46749878
RKS,Southwest Wyoming Regional Airport,Rock Springs,NA,USA,41.5942,-109.065001
RUT,Rutland - Southern Vermont Regional Airport,Rutland,NA,USA,43.52939987,-72.94960022
SBP,San Luis County Regional Airport,San Luis Obispo,NA,USA,35.23680115,-120.6419983
SHR,Sheridan County Airport,Sheridan,NA,USA,44.76919937,-106.9800034
SLK,Adirondack Regional Airport,Saranac Lake,NA,USA,44.38529968,-74.20619965
SLN,Salina Municipal Airport,Salina,NA,USA,38.79100037,-97.65219879
SMX,Santa Maria Pub/Capt G Allan Hancock Field,Santa Maria,NA,USA,34.89889908,-120.4570007
TUP,Tupelo Regional Airport,Tupelo,NA,USA,34.26810074,-88.76989746
UIN,Quincy Regional Baldwin Field,Quincy,NA,USA,39.94269943,-91.19460297
VCT,Victoria Regional Airport,Victoria,NA,USA,28.8526001,-96.91850281
VLD,Valdosta Regional Airport,Valdosta,NA,USA,30.78249931,-83.27670288
WRL,Worland Municipal Airport,Worland,NA,USA,43.96569824,-107.9509964
YKM,Yakima Air Terminal McAllister Field,Yakima,NA,USA,46.56819916,-120.5439987
ADK,Adak Airport,Adak Island,NA,USA,51.87799835,-176.6459961
GST,Gustavus Airport,Gustavus,NA,USA,58.4253006,-135.7070007
SGY,Skagway Airport,Skagway,NA,USA,59.46009827,-135.3159943
HCR,Holy Cross Airport,Holy Cross,NA,USA,62.18830109,-159.7749939
HNS,Haines Airport,Haines,NA,USA,59.24380112,-135.5240021
KLG,Kalskag Airport,Kalskag,NA,USA,61.53630066,-160.3410034
MCG,McGrath Airport,Mcgrath,NA,USA,62.95289993,-155.6060028
MOU,Mountain Village Airport,Mountain Village,NA,USA,62.09540176,-163.6820068
ANI,Aniak Airport,Aniak,NA,USA,61.58160019,-159.5429993
VAK,Chevak Airport,Chevak,NA,USA,61.5409,-165.6005
WRG,Wrangell Airport,Wrangell,NA,USA,56.48429871,-132.3699951
LUP,Kalaupapa Airport,Molokai,NA,USA,21.21100044,-156.973999
WKK,Aleknagik / New Airport,Aleknagik,NA,USA,59.2826004,-158.6179962
BKX,Brookings Regional Airport,Brookings,NA,USA,44.3048,-96.8169
BLF,Mercer County Airport,Bluefield,NA,USA,37.29579926,-81.20770264
EAR,Kearney Municipal Airport,Kearney,NA,USA,40.727,-99.0068
GLH,Mid Delta Regional Airport,Greenville,NA,USA,33.48289871,-90.98560333
IFP,Laughlin-Bullhead Intl,Bullhead,NA,USA,35.1574,-114.56
IGM,Kingman Airport,Kingman,NA,USA,35.2595,-113.938
PSC,Tri Cities Airport,Pasco,NA,USA,46.26470184,-119.1190033
KQA,Akutan Seaplane Base,Akutan,NA,USA,54.13377044,-165.7788956
SVC,Grant County Airport,Silver City,NA,USA,32.6365,-108.156
LPS,Lopez Island Airport,Lopez,NA,USA,48.48389816,-122.9380035
WKL,Waikoloa Heliport,Waikoloa Village,NA,USA,19.9205,-155.8607
ORH,Worcester Regional Airport,Worcester,NA,USA,42.26729965,-71.8757019
ZVE,New Haven Rail Station,New Haven,NA,USA,41.298669,-72.925992
PWT,Bremerton National Airport,Bremerton,NA,USA,47.49020004,-122.7649994
SPW,Spencer Municipal Airport,Spencer,NA,USA,43.16550064,-95.20279694
JEF,Jefferson City Memorial Airport,Jefferson City,NA,USA,38.59120178,-92.15609741
GCW,Grand Canyon West Airport,Grand Canyon West,NA,USA,35.5925,-113.4859
BLD,Boulder City Municipal Airport,Boulder City,NA,USA,35.5651,-114.514
PVC,Provincetown Municipal Airport,Provincetown,NA,USA,42.07189941,-70.2213974
LKE,Kenmore Air Harbor Seaplane Base,Seattle,NA,USA,47.629,-122.339
FUL,Fullerton Municipal Airport,Fullerton,NA,USA,33.87200165,-117.9800034
USA,Concord-Padgett Regional Airport,Concord,NA,USA,35.387798,-80.709099
SUN,Friedman Memorial Airport,Hailey,NA,USA,43.50439835,-114.2959976
MCW,Mason City Municipal Airport,Mason City,NA,USA,43.15779877,-93.33129883
AZA,Phoenix-Mesa-Gateway Airport,Mesa,NA,USA,33.30780029,-111.6549988
ZWU,Washington Union Station,Washington,NA,USA,38.89746,-77.00643
AKP,Anaktuvuk Pass Airport,Anaktuvuk Pass,NA,USA,68.13359833,-151.7429962
ANV,Anvik Airport,Anvik,NA,USA,62.646702,-160.190994
ATK,Atqasuk Edward Burnell Sr Memorial Airport,Atqasuk,NA,USA,70.46730042,-157.4360046
GAM,Gambell Airport,Gambell,NA,USA,63.76679993,-171.7330017
HPB,Hooper Bay Airport,Hooper Bay,NA,USA,61.52389908,-166.1470032
KAL,Kaltag Airport,Kaltag,NA,USA,64.31909943,-158.7409973
KSM,St Mary's Airport,St Mary's,NA,USA,62.0605011,-163.302002
KVL,Kivalina Airport,Kivalina,NA,USA,67.73619843,-164.5630035
MYU,Mekoryuk Airport,Mekoryuk,NA,USA,60.37139893,-166.2709961
PHO,Point Hope Airport,Point Hope,NA,USA,68.3488,-166.799
RBY,Ruby Airport,Ruby,NA,USA,64.72720337,-155.4700012
SHH,Shishmaref Airport,Shishmaref,NA,USA,66.249604,-166.089112
SVA,Savoonga Airport,Savoonga,NA,USA,63.68640137,-170.4929962
WTK,Noatak Airport,Noatak,NA,USA,67.56610107,-162.9750061
ARC,Arctic Village Airport,Arctic Village,NA,USA,68.1147,-145.578995
KPC,Port Clarence Coast Guard Station,Port Clarence,NA,USA,65.25370026,-166.8589935
HGR,Hagerstown Regional Richard A Henson Field,Hagerstown,NA,USA,39.707901,-77.72949982
SDP,Sand Point Airport,Sand Point,NA,USA,55.31499863,-160.522995
DRG,Deering Airport,Deering,NA,USA,66.06960297,-162.7660065
IGG,Igiugig Airport,Igiugig,NA,USA,59.32400131,-155.9019928
KNW,New Stuyahok Airport,New Stuyahok,NA,USA,59.44990158,-157.3280029
KVC,King Cove Airport,King Cove,NA,USA,55.11629868,-162.2660065
PTH,Port Heiden Airport,Port Heiden,NA,USA,56.95909882,-158.6329956
TOG,Togiak Airport,Togiak Village,NA,USA,59.05279922,-160.3970032
ESC,Delta County Airport,Escanaba,NA,USA,45.72269821,-87.09369659
YAK,Yakutat Airport,Yakutat,NA,USA,59.50329971,-139.6600037
MWA,Williamson County Regional Airport,Marion,NA,USA,37.75500107,-89.01110077
IMT,Ford Airport,Iron Mountain,NA,USA,45.81840134,-88.11450195
AET,Allakaket Airport,Allakaket,NA,USA,66.55180359,-152.621994
MGC,Michigan City Municipal Airport,Michigan City,NA,USA,41.70330048,-86.82119751
SWD,Seward Airport,Seward,NA,USA,60.12689972,-149.4190063
MXY,McCarthy Airport,McCarthy,NA,USA,61.4370608,-142.9030737
NPZ,Porter County Municipal Airport,Valparaiso,NA,USA,41.4539722,-87.0070833
GRM,Grand Marais Cook County Airport,Grand Marais,NA,USA,47.8382988,-90.38289642
MCD,Mackinac Island Airport,Mackinac Island,NA,USA,45.8649344,-84.637344
IWD,Gogebic Iron County Airport,Ironwood,NA,USA,46.5274747,-90.1313967
C47,Portage Municipal Airport,Portage,NA,USA,43.5603136,-89.4828607
AUW,Wausau Downtown Airport,Wausau,NA,USA,44.92620087,-89.62660217
MQB,Macomb Municipal Airport,Macomb,NA,USA,40.5200833,-90.6523889
1RL,Point Roberts Airpark,Point Roberts,NA,USA,48.9797222,-123.0788889
MIE,Delaware County Johnson Field,Muncie,NA,USA,40.24229813,-85.39589691
OXD,Miami University Airport,Oxford,NA,USA,39.5022607,-84.7843814
LAF,Purdue University Airport,Lafayette,NA,USA,40.41230011,-86.93689728
DKB,De Kalb Taylor Municipal Airport,De Kalb,NA,USA,41.9338342,-88.7056864
C02,Grand Geneva Resort Airport,Lake Geneva,NA,USA,42.6149167,-88.3895833
VGT,North Las Vegas Airport,Las Vegas,NA,USA,36.21070099,-115.1940002
ENW,Kenosha Regional Airport,Kenosha,NA,USA,42.59569931,-87.92780304
1CS,Clow International Airport,Bolingbrook,NA,USA,41.6959744,-88.1292306
MTJ,Montrose Regional Airport,Montrose CO,NA,USA,38.50979996,-107.8939972
RIW,Riverton Regional Airport,Riverton WY,NA,USA,43.06420136,-108.4599991
TYE,Tyonek Airport,Tyonek,NA,USA,61.076667,-151.138056
PDT,Eastern Oregon Regional At Pendleton Airport,Pendleton,NA,USA,45.69509888,-118.8410034
0P2,Shoestring Aviation Airfield,Stewartstown,NA,USA,39.7948244,-76.6471914
SUE,Door County Cherryland Airport,Sturgeon Bay,NA,USA,44.8436667,-87.4215556
CDI,Cambridge Municipal Airport,Cambridge,NA,USA,39.9750278,-81.5775833
C91,Dowagiac Municipal Airport,Dowagiac,NA,USA,41.9929342,-86.1280125
4I7,Putnam County Airport,Greencastle,NA,USA,39.6335556,-86.8138056
X01,Everglades Airpark,Everglades,NA,USA,25.8488611,-81.3902778
10C,Galt Field Airport,Greenwood,NA,USA,42.4028889,-88.3751111
UES,Waukesha County Airport,Waukesha,NA,USA,43.0410278,-88.2370556
BEH,Southwest Michigan Regional Airport,Benton Harbor,NA,USA,42.1285833,-86.4285
OSH,Wittman Regional Airport,Oshkosh,NA,USA,43.9844017,-88.55699921
EAT,Pangborn Memorial Airport,Wenatchee,NA,USA,47.39889908,-120.2070007
1OH,Fortman Airport,St. Marys,NA,USA,40.5553253,-84.3866186
FWH,NAS Fort Worth JRB/Carswell Field,Dallas,NA,USA,32.76919937,-97.4414978
GYY,Gary Chicago International Airport,Gary,NA,USA,41.61629868,-87.41280365
BRD,Brainerd Lakes Regional Airport,Brainerd,NA,USA,46.39830017,-94.13809967
LWB,Greenbrier Valley Airport,Lewisburg,NA,USA,37.85829926,-80.39949799
PGV,Pitt Greenville Airport,Greenville,NA,USA,35.6352005,-77.38529968
CYF,Chefornak Airport,Chefornak,NA,USA,60.14920044,-164.2859955
OXR,Oxnard Airport,Oxnard,NA,USA,34.20080185,-119.2070007
BKG,Branson Airport,Branson,NA,USA,36.532082,-93.200544
ZBP,Penn Station,Baltimore,NA,USA,39.307222,-76.615556
SCH,Schenectady County Airport,Scotia NY,NA,USA,42.85250092,-73.92890167
UST,Northeast Florida Regional Airport,St. Augustine Airport,NA,USA,29.9592,-81.339798
STS,Charles M. Schulz Sonoma County Airport,Santa Rosa,NA,USA,38.50899887,-122.8130035
ISM,Kissimmee Gateway Airport,Kissimmee,NA,USA,28.28980064,-81.43710327
LCQ,Lake City Gateway Airport,Lake City,NA,USA,30.18199921,-82.57689667
LGU,Logan-Cache Airport,Logan,NA,USA,41.79119873,-111.8519974
BMC,Brigham City Regional Airport,Brigham City,NA,USA,41.552399,-112.061996
ASE,Aspen-Pitkin Co/Sardy Field,Aspen,NA,USA,39.22320175,-106.8690033
ZFV,Philadelphia 30th St Station,Philadelphia,NA,USA,39.9557,-75.182
BWD,KBWD,Brownwood,NA,USA,31.7936111,-98.9565
LXY,Mexia - Limestone County Airport,Mexia,NA,USA,31.6411783,-96.5144594
ERV,Kerrville Municipal Louis Schreiner Field,Kerrville,NA,USA,29.97669983,-99.08570099
GED,Sussex County Airport,Georgetown,NA,USA,38.68920135,-75.35890198
GBD,Great Bend Municipal Airport,Great Bend,NA,USA,38.34429932,-98.85919952
HYS,Hays Regional Airport,Hays,NA,USA,38.84220123,-99.27320099
SUS,Spirit of St Louis Airport,Null,NA,USA,38.66210175,-90.65200043
LYU,Ely Municipal Airport,Ely,NA,USA,47.82450104,-91.83070374
GPZ,Grand Rapids Itasca Co-Gordon Newstrom field,Grand Rapids MN,NA,USA,47.21110153,-93.50980377
TVF,Thief River Falls Regional Airport,Thief River Falls,NA,USA,48.06570053,-96.18499756
EGV,Eagle River Union Airport,Eagle River,NA,USA,45.93230057,-89.26830292
ARV,Lakeland-Noble F. Lee Memorial field,Minocqua - Woodruff,NA,USA,45.92789841,-89.73090363
AVX,Catalina Airport,Catalina Island,NA,USA,33.4049,-118.416
MHV,Mojave Airport,Mojave,NA,USA,35.05939865,-118.1520004
KEH,Kenmore Air Harbor Inc Seaplane Base,Kenmore,NA,USA,47.7548,-122.259
HUT,Hutchinson Municipal Airport,Hutchinson,NA,USA,38.06549835,-97.86060333
EGA,Eagle County Airport,Eagle,NA,USA,39.6427611,-106.9159347
STJ,Rosecrans Memorial Airport,Rosecrans,NA,USA,39.77190018,-94.90969849
ZRT,Hartford Union Station,Hartford,NA,USA,41.76888,-72.6815
ZTF,Stamford Amtrak Station,Stamford,NA,USA,41.046937,-73.541493
ZRP,Newark Penn Station,Newark,NA,USA,40.734722,-74.164167
VOK,Volk Field,Camp Douglas,NA,USA,43.93899918,-90.25340271
GUC,Gunnison Crested Butte Regional Airport,Gunnison,NA,USA,38.53390121,-106.9329987
TOA,Zamperini Field,Torrance,NA,USA,33.80339813,-118.3399963
MBL,Manistee Co Blacker Airport,Manistee,NA,USA,44.2723999,-86.24690247
PGD,Charlotte County Airport,Punta Gorda,NA,USA,26.92020035,-81.9905014
JGC,Grand Canyon Heliport,Grand Canyon,NA,USA,35.96666666,-112.1333333
WFK,Northern Aroostook Regional Airport,Frenchville,NA,USA,47.28549957,-68.31279755
JHW,Chautauqua County-Jamestown Airport,Jamestown,NA,USA,42.15340042,-79.25800323
SME,Lake Cumberland Regional Airport,Somerset,NA,USA,37.05339813,-84.61589813
SHD,Shenandoah Valley Regional Airport,Weyers Cave,NA,USA,38.26380157,-78.89640045
DVL,Devils Lake Regional Airport,Devils Lake,NA,USA,48.11420059,-98.90879822
DIK,Dickinson Theodore Roosevelt Regional Airport,Dickinson,NA,USA,46.79740143,-102.802002
SDY,Sidney - Richland Regional Airport,Sidney,NA,USA,47.706902,-104.193001
CDR,Chadron Municipal Airport,Chadron,NA,USA,42.83760071,-103.0950012
AIA,Alliance Municipal Airport,Alliance,NA,USA,42.05319977,-102.8040009
MCK,Mc Cook Ben Nelson Regional Airport,McCook,NA,USA,40.20629883,-100.5920029
MTH,The Florida Keys Marathon Airport,Marathon,NA,USA,24.726101,-81.051399
GDV,Dawson Community Airport,Glendive,NA,USA,47.13869858,-104.8069992
OLF,L M Clayton Airport,Wolf Point,NA,USA,48.0945015,-105.5749969
WYS,Yellowstone Airport,West Yellowstone,NA,USA,44.68840027,-111.1179962
ALS,San Luis Valley Regional Bergman Field,Alamosa,NA,USA,37.434898,-105.866997
CNY,Canyonlands Field,Moab,NA,USA,38.75500107,-109.7549973
ELY,Ely Airport Yelland Field,Ely,NA,USA,39.29970169,-114.8420029
VEL,Vernal Regional Airport,Vernal,NA,USA,40.4408989,-109.5100021
RUI,Sierra Blanca Regional Airport,Ruidoso,NA,USA,33.46279907,-105.5350037
SOW,Show Low Regional Airport,Show Low,NA,USA,34.26549912,-110.0059967
MYL,McCall Municipal Airport,McCall,NA,USA,44.88970184,-116.1009979
SMN,Lemhi County Airport,Salmon,NA,USA,45.12379837,-113.8809967
MMH,Mammoth Yosemite Airport,Mammoth Lakes,NA,USA,37.62409973,-118.8379974
FRD,Friday Harbor Airport,Friday Harbor,NA,USA,48.52199936,-123.0240021
ESD,Orcas Island Airport,Eastsound,NA,USA,48.70819855,-122.9100037
OTS,Anacortes Airport,Anacortes,NA,USA,48.498889,-122.6625
AST,Astoria Regional Airport,Astoria,NA,USA,46.15800095,-123.8789978
ONP,Newport Municipal Airport,Newport,NA,USA,44.580399,-124.057999
EMK,Emmonak Airport,Emmonak,NA,USA,62.78609848,-164.4909973
UNK,Unalakleet Airport,Unalakleet,NA,USA,63.88840103,-160.798996
UUK,Ugnu-Kuparuk Airport,Kuparuk,NA,USA,70.33080292,-149.5980072
SHX,Shageluk Airport,Shageluk,NA,USA,62.69229889,-159.5690002
CHU,Chuathbaluk Airport,Chuathbaluk,NA,USA,61.579102,-159.216003
NUI,Nuiqsut Airport,Nuiqsut,NA,USA,70.20999908,-151.0059967
EEK,Eek Airport,Eek,NA,USA,60.21367264,-162.0438843
KUK,Kasigluk Airport,Kasigluk,NA,USA,60.87440109,-162.5240021
KWT,Kwethluk Airport,Kwethluk,NA,USA,60.79029846,-161.4440002
KWK,Kwigillingok Airport,Kwigillingok,NA,USA,59.876499,-163.169005
MLL,Marshall Don Hunter Sr Airport,Marshall,NA,USA,61.86429977,-162.026001
RSH,Russian Mission Airport,Russian Mission,NA,USA,61.77888489,-161.319458
WTL,Tuntutuliak Airport,Tuntutuliak,NA,USA,60.335278,-162.666944
KEK,Ekwok Airport,Ekwok,NA,USA,59.356944,-157.471111
KGK,Koliganek Airport,Koliganek,NA,USA,59.72660065,-157.2590027
KLL,Levelock Airport,Levelock,NA,USA,59.128056,-156.858611
KMO,Manokotak Airport,Manokotak,NA,USA,58.99020004,-159.0500031
TWA,Twin Hills Airport,Twin Hills,NA,USA,59.074444,-160.275
CIK,Chalkyitsik Airport,Chalkyitsik,NA,USA,66.64499664,-143.7400055
EAA,Eagle Airport,Eagle,NA,USA,64.77639771,-141.151001
HUS,Hughes Airport,Hughes,NA,USA,66.04109955,-154.2630005
HSL,Huslia Airport,Huslia,NA,USA,65.69789886,-156.3509979
LIV,Livingood Airport,Livingood,NA,USA,65.531111,-148.541111
MNT,Minto Airport,Minto,NA,USA,65.143611,-149.37
NUL,Nulato Airport,Nulato,NA,USA,64.729301,-158.074005
RMP,Rampart Airport,Rampart,NA,USA,65.507778,-150.140833
TAL,Tanana Airport,Tanana,NA,USA,65.179556,-152.075833
VEE,Venetie Airport,Venetie,NA,USA,67.00869751,-146.3659973
WBQ,Beaver Airport,Beaver,NA,USA,66.36219788,-147.4069977
CEM,Central Airport,Central,NA,USA,65.57379913,-144.7830048
SHG,Shungnak Airport,Shungnak,NA,USA,66.88809967,-157.1620026
KBC,Birch Creek Airport,Brich Creek,NA,USA,66.256708,-145.815319
CXF,Coldfoot Airport,Coldfoot,NA,USA,67.251389,-150.176111
IYK,Inyokern Airport,Inyokern,NA,USA,35.65879822,-117.8300018
VIS,Visalia Municipal Airport,Visalia,NA,USA,36.31869888,-119.3929977
MCE,Merced Regional Macready Field,Merced,NA,USA,37.28469849,-120.5139999
GYR,Phoenix Goodyear Airport,Goodyear,NA,USA,33.42250061,-112.3759995
AGN,Angoon Seaplane Base,Angoon,NA,USA,57.503601,-134.585007
ELV,Elfin Cove Seaplane Base,Elfin Cove,NA,USA,58.19520187,-136.3470001
TKE,Tenakee Seaplane Base,Tenakee Springs,NA,USA,57.779722,-135.218333
PEC,Pelican Seaplane Base,Pelican,NA,USA,57.955278,-136.236389
CYM,Chatham Seaplane Base,Sitka,NA,USA,57.515,-134.946111
FNR,Funter Bay Seaplane Base,Funter Bay,NA,USA,58.25439835,-134.897995
EXI,Excursion Inlet Seaplane Base,Excursion Inlet,NA,USA,58.420556,-135.449167
HNH,Hoonah Airport,Hoonah,NA,USA,58.0961,-135.410111
CGA,Craig Seaplane Base,Craig,NA,USA,55.478889,-133.147778
HYL,Hollis Seaplane Base,Hollis,NA,USA,55.481667,-132.646111
MTM,Metlakatla Seaplane Base,Metakatla,NA,USA,55.131001,-131.578003
KTB,Thorne Bay Seaplane Base,Thorne Bay,NA,USA,55.688056,-132.536667
HYG,Hydaburg Seaplane Base,Hydaburg,NA,USA,55.20629883,-132.8280029
WHD,Hyder Seaplane Base,Hyder,NA,USA,55.903333,-130.006667
KPB,Point Baker Seaplane Base,Point Baker,NA,USA,56.351944,-133.6225
PPV,Port Protection Seaplane Base,Port Protection,NA,USA,56.328889,-133.61
WWP,North Whale Seaplane Base,North Whale Pass,NA,USA,56.116389,-133.121667
KCQ,Chignik Lake Airport,Chignik Lake,NA,USA,56.255,-158.775278
EGX,Egegik Airport,Egegik,NA,USA,58.1855011,-157.375
KCL,Chignik Lagoon Airport,Chignik Lagoon,NA,USA,56.311111,-158.534167
KBW,Chignik Bay Seaplane Base,Chignik,NA,USA,56.295556,-158.401398
KPV,Perryville Airport,Perryville,NA,USA,55.905998,-159.162993
PIP,Pilot Point Airport,Pilot Point,NA,USA,57.58039856,-157.5720062
WSN,South Naknek Nr 2 Airport,South Naknek,NA,USA,58.70339966,-157.0079956
AKK,Akhiok Airport,Akhiok,NA,USA,56.93870163,-154.1829987
KYK,Karluk Airport,Karluk,NA,USA,57.56710052,-154.4499969
KLN,Larsen Bay Airport,Larsen Bay,NA,USA,57.53509903,-153.9779968
OLH,Old Harbor Airport,Old Harbor,NA,USA,57.218056,-153.269722
KOZ,Ouzinkie Airport,Ouzinkie,NA,USA,57.922876,-152.500511
ORI,Port Lions Airport,Port Lions,NA,USA,57.885278,-152.846111
ALZ,Alitak Seaplane Base,Lazy Bay,NA,USA,56.899444,-154.247778
AOS,Amook Bay Seaplane Base,Amook Bay,NA,USA,57.471389,-153.815278
KKB,Kitoi Bay Seaplane Base,Kitoi Bay,NA,USA,58.190833,-152.370556
KMY,Moser Bay Seaplane Base,Moser Bay,NA,USA,57.025556,-154.145833
KOY,Olga Bay Seaplane Base,Olga Bay,NA,USA,57.161389,-154.229722
KPY,Port Bailey Seaplane Base,Port Bailey,NA,USA,57.93,-153.040556
KPR,Port Williams Seaplane Base,Port Williams,NA,USA,58.49,-152.582222
SYB,Seal Bay Seaplane Base,Seal Bay,NA,USA,58.166667,-152.5
WSJ,San Juan - Uganik Seaplane Base,San Juan,NA,USA,57.730278,-153.320556
KWP,West Point Village Seaplane Base,West Point,NA,USA,57.77,-153.548889
KZB,Zachar Bay Seaplane Base,Zachar Bay,NA,USA,57.55,-153.75
ABL,Ambler Airport,Ambler,NA,USA,67.1063,-157.856989
BKC,Buckland Airport,Buckland,NA,USA,65.9815979,-161.1490021
IAN,Bob Baker Memorial Airport,Kiana,NA,USA,66.97599792,-160.4369965
OBU,Kobuk Airport,Kobuk,NA,USA,66.91230011,-156.8970032
ORV,Robert (Bob) Curtis Memorial Airport,Noorvik,NA,USA,66.81790161,-161.0189972
WLK,Selawik Airport,Selawik,NA,USA,66.60009766,-159.9859924
KTS,Brevig Mission Airport,Brevig Mission,NA,USA,65.33129883,-166.4660034
ELI,Elim Airport,Elim,NA,USA,64.61470032,-162.2720032
GLV,Golovin Airport,Golovin,NA,USA,64.55049896,-163.0070038
TLA,Teller Airport,Teller,NA,USA,65.24040222,-166.3390045
WAA,Wales Airport,Wales,NA,USA,65.622593,-168.095
WMO,White Mountain Airport,White Mountain,NA,USA,64.68920136,-163.4129944
CIL,Council Airport,Council,NA,USA,64.897778,-163.703333
KKA,Koyuk Alfred Adams Airport,Koyuk,NA,USA,64.9394989,-161.154007
SMK,St Michael Airport,St. Michael,NA,USA,63.49010086,-162.1100006
SKK,Shaktoolik Airport,Shaktoolik,NA,USA,64.37110138,-161.223999
WBB,Stebbins Airport,Stebbins,NA,USA,63.515833,-162.278056
TNC,Tin City Long Range Radar Station Airport,Tin City,NA,USA,65.56310272,-167.9219971
AKB,Atka Airport,Atka,NA,USA,52.22029877,-174.2059937
IKO,Nikolski Air Station,Nikolski,NA,USA,52.9416008,-168.848999
ICY,Icy Bay Airport,Icy Bay,NA,USA,59.968889,-141.661667
CYT,Yakataga Airport,Yakataga,NA,USA,60.080974,-142.494541
AUK,Alakanuk Airport,Alakanuk,NA,USA,62.68004227,-164.6599274
SXP,Sheldon Point Airport,Nunam Iqua,NA,USA,62.520556,-164.847778
KPN,Kipnuk Airport,Kipnuk,NA,USA,59.93299866,-164.0310059
KFP,False Pass Airport,False Pass,NA,USA,54.84740067,-163.4100037
NLG,Nelson Lagoon Airport,Nelson Lagoon,NA,USA,56.00749969,-161.1600037
PML,Port Moller Airport,Cold Bay,NA,USA,56.00600052,-160.5610046
KLW,Klawock Airport,Klawock,NA,USA,55.57920074,-133.076004
KWN,Quinhagak Airport,Quinhagak,NA,USA,59.7551,-161.845
KOT,Kotlik Airport,Kotlik,NA,USA,63.0306015,-163.5330048
KYU,Koyukuk Airport,Koyukuk,NA,USA,64.87609863,-157.727005
SCM,Scammon Bay Airport,Scammon Bay,NA,USA,61.84529877,-165.5709991
NNL,Nondalton Airport,Nondalton,NA,USA,59.98020172,-154.8390045
PDB,Pedro Bay Airport,Pedro Bay,NA,USA,59.782222,-154.1325
NUP,Nunapitchuk Airport,Nunapitchuk,NA,USA,60.905833,-162.439167
KKH,Kongiganak Airport,Kongiganak,NA,USA,59.96080017,-162.8809967
NIB,Nikolai Airport,Nikolai,NA,USA,63.0186,-154.358002
TCT,Takotna Airport,Takotna,NA,USA,62.971944,-156.082778
PQS,Pilot Station Airport,Pilot Station,NA,USA,61.934444,-162.899444
AKI,Akiak Airport,Akiak,NA,USA,60.9029007,-161.2310028
TLT,Tuluksak Airport,Tuluksak,NA,USA,61.096944,-160.969444
KGX,Grayling Airport,Grayling,NA,USA,62.894444,-160.065
AIN,Wainwright Airport,Wainwright,NA,USA,70.63800049,-159.9949951
NCN,Chenega Bay Airport,Chenega,NA,USA,60.07730103,-147.9920044
CZN,Chisana Airport,Chisana,NA,USA,62.071111,-142.048333
TKJ,Tok Junction Airport,Tok,NA,USA,63.32949829,-142.9539948
IRC,Circle City /New/ Airport,Circle,NA,USA,65.830498,-144.076008
KCC,Coffman Cove Seaplane Base,Coffman Cove,NA,USA,56.014722,-132.833889
CKD,Crooked Creek Airport,Crooked Creek,NA,USA,61.867778,-158.135
RDV,Red Devil Airport,Red Devil,NA,USA,61.788056,-157.350278
SLQ,Sleetmute Airport,Sleetmute,NA,USA,61.70050049,-157.1660004
SRV,Stony River 2 Airport,Stony River,NA,USA,61.7875,-156.591111
KAE,Kake Seaplane Base,Kake,NA,USA,56.973056,-133.945556
LMA,Minchumina Airport,Lake Minchumina,NA,USA,63.886002,-152.302002
MLY,Manley Hot Springs Airport,Manley Hot Springs,NA,USA,64.99759674,-150.6439972
TEK,Tatitlek Airport,Tatitlek,NA,USA,60.8725,-146.691111
WFB,Ketchikan harbor Seaplane Base,Ketchikan,NA,USA,55.344444,-131.663333
CPS,St. Louis Downtown Airport,East St. Louis,NA,USA,38.5707244,-90.1562211
MRB,Eastern WV Regional Airport/Shepherd Field,Martinsburg,NA,USA,39.40190125,-77.98459625
RKH,Rock Hill - York County Airport,Rock Hill,NA,USA,34.9878006,-81.05719757
AGC,Allegheny County Airport,Pittsburgh,NA,USA,40.35440063,-79.93019867
VQQ,Cecil Airport,Jacksonville,NA,USA,30.21870041,-81.87670136
FTY,Fulton County Airport Brown Field,Atlanta,NA,USA,33.77909851,-84.52140045
60J,Odell Williamson Municipal,Ocean Isle Beach,NA,USA,33.9085056,-78.4366722
OSU,The Ohio State University Airport - Don Scott Field,Columbus,NA,USA,40.0798,-83.072998
ADS,Addison Airport,Addison,NA,USA,32.96860123,-96.83640289
DSI,Destin Executive Airport,Destin,NA,USA,30.40010071,-86.47149658
RBN,Fort Jefferson,Fort Jefferson - Dry Tortugas,NA,USA,24.61667,-82.86667
ISO,Kinston Regional Jetport At Stallings Field,Kinston,NA,USA,35.33140183,-77.6088028
FFA,First Flight Airport,Kill Devil Hills,NA,USA,36.01819992,-75.6713028
PVU,Provo Municipal Airport,Provo,NA,USA,40.21920013,-111.7229996
SBS,Steamboat Springs Bob Adams Field,Steamboat Springs,NA,USA,40.5163002,-106.8659973
DTA,Delta Municipal Airport,Delta,NA,USA,39.38059998,-112.5080032
PUC,Carbon County Regional/Buck Davis Field,Price,NA,USA,39.61389923,-110.7509995
LAM,Los Alamos Airport,Los Alamos,NA,USA,35.87979889,-106.2689972
BXS,Borrego Valley Airport,Borrego Springs,NA,USA,33.2590278,-116.3209722
HII,Lake Havasu City Airport,Lake Havasu City,NA,USA,34.571098,-114.358002
INW,Winslow Lindbergh Regional Airport,Winslow,NA,USA,35.02190018,-110.7229996
DGL,Douglas Municipal Airport,Douglas,NA,USA,31.34259987,-109.5059967
BOW,Bartow Municipal Airport,Bartow,NA,USA,27.94339943,-81.78340149
LVK,Livermore Municipal Airport,Livermore,NA,USA,37.69340134,-121.8199997
RMY,Mariposa Yosemite Airport,Mariposa,NA,USA,37.51089859,-120.0400009
TRM,Jacqueline Cochran Regional Airport,Palm Springs,NA,USA,33.62670135,-116.1600037
SMO,Santa Monica Municipal Airport,Santa Monica,NA,USA,34.01580048,-118.4509964
UDD,Bermuda Dunes Airport,Palm Springs,NA,USA,33.74840164,-116.2750015
SCF,Scottsdale Airport,Scottsdale,NA,USA,33.6228981,-111.9110031
OLM,Olympia Regional Airport,Olympia,NA,USA,46.9693985,-122.9029999
RIL,Garfield County Regional Airport,Rifle,NA,USA,39.526299,-107.726997
SAA,Shively Field,SARATOGA,NA,USA,41.444901,-106.823997
PDK,DeKalb Peachtree Airport,Atlanta,NA,USA,33.87559891,-84.30200195
BMG,Monroe County Airport,Bloomington,NA,USA,39.14599991,-86.61669922
SUA,Witham Field,Stuart,NA,USA,27.18169975,-80.22109985
MMU,Morristown Municipal Airport,Morristown,NA,USA,40.79940033,-74.41490173
APC,Napa County Airport,Napa,NA,USA,38.2132,-122.280998
SDM,Brown Field Municipal Airport,San Diego,NA,USA,32.57229996,-116.9800034
VNC,Venice Municipal Airport,Venice,NA,USA,27.07159996,-82.44029999
PHK,Palm Beach County Glades Airport,Pahokee,NA,USA,26.78499985,-80.69339752
ECP,Northwest Florida Beaches International Airport,Panama City,NA,USA,30.357106,-85.795414
SBD,San Bernardino International Airport,San Bernardino,NA,USA,34.09540176,-117.2350006
SQL,San Carlos Airport,San Carlos,NA,USA,37.51190186,-122.25
RWI,Rocky Mount Wilson Regional Airport,Rocky Mount,NA,USA,35.85630035,-77.89189911
SXQ,Soldotna Airport,Soldotna,NA,USA,60.47570038,-151.0339966
SEE,Gillespie Field,El Cajon,NA,USA,32.82619858,-116.9720001
TKF,Truckee Tahoe Airport,Truckee,NA,USA,39.31999969,-120.1399994
ONH,Oneonta Municipal Airport,Oneonta,NA,USA,42.524722,-75.064444
LVM,Mission Field,Livingston-Montana,NA,USA,45.69940186,-110.447998
GMV,Monument Valley Airport,Monument Valley,NA,USA,37.01670074,-110.2009964
JRA,West 30th St. Heliport,New York,NA,USA,40.754501,-74.007103
LAL,Lakeland Linder International Airport,Lakeland,NA,USA,27.988899,-82.018602
RBK,French Valley Airport,Murrieta-Temecula,NA,USA,33.57419968,-117.1279984
MGY,Dayton-Wright Brothers Airport,Dayton,NA,USA,39.5890007,-84.22489929
FDY,Findlay Airport,Findley,NA,USA,41.01350021,-83.66870117
SPF,Black Hills Airport-Clyde Ice Field,Spearfish-South Dakota,NA,USA,44.4803009,-103.7829971
OLV,Olive Branch Airport,Olive Branch,NA,USA,34.97869873,-89.78690338
BJC,Rocky Mountain Metropolitan Airport,Broomfield-CO,NA,USA,39.90879822,-105.1169968
SLE,Salem Municipal Airport/McNary Field,Salem,NA,USA,44.90950012,-123.0029984
UTM,Tunica Municipal Airport,Tunica,NA,USA,34.68099976,-90.34670258
MWC,Lawrence J Timmerman Airport,Milwaukee,NA,USA,43.110401,-88.034401
JVL,Southern Wisconsin Regional Airport,Janesville,NA,USA,42.62030029,-89.04160309
LZU,Gwinnett County Briscoe Field,Lawrenceville,NA,USA,33.97809982,-83.96240234
BWG,Bowling Green Warren County Regional Airport,Bowling Green,NA,USA,36.96450043,-86.41970062
RVS,Richard Lloyd Jones Jr Airport,Tulsa,NA,USA,36.03960037,-95.98459625
BCE,Bryce Canyon Airport,Bryce Canyon,NA,USA,37.70640183,-112.1449966
JCI,New Century Aircenter Airport,Olathe,NA,USA,38.83089828,-94.89029694
ESN,Easton Newnam Field,Easton,NA,USA,38.80419922,-76.06900024
R49,Ferry County Airport,Republic,NA,USA,48.7182058,-118.6564714
MYV,Yuba County Airport,Yuba City,NA,USA,39.09780121,-121.5699997
DUC,Halliburton Field,Duncan,NA,USA,34.47090149,-97.9598999
E91,Chinle Municipal Airport,Chinle,NA,USA,36.1108806,-109.5754222
UVA,Garner Field,Uvalde,NA,USA,29.2112999,-99.74359894
LOT,Lewis University Airport,Lockport,NA,USA,41.6072998,-88.09619904
C16,Frasca Field,Urbana,NA,USA,40.144979,-88.200197
CCR,Buchanan Field,Concord,NA,USA,37.98970032,-122.0569992
OCA,Ocean Reef Club Airport,Ocean Reef Club Airport,NA,USA,25.3253994,-80.27480316
ATO,Ohio University Snyder Field,Athens,NA,USA,39.21099854,-82.23139954
SGH,Springfield-Beckley Municipal Airport,Springfield,NA,USA,39.84030151,-83.84020233
MPB,Miami Seaplane Base,Miami,NA,USA,25.7783,-80.1703
TOP,Philip Billard Municipal Airport,Topeka,NA,USA,39.06869888,-95.62249756
MQY,Smyrna Airport,Smyrna,NA,USA,36.00899887,-86.52010345
UOS,Franklin County Airport,Sewanee,NA,USA,35.20510101,-85.89810181
PWK,Chicago Executive Airport,Chicago-Wheeling,NA,USA,42.114222,-87.901494
KLS,Southwest Washington Regional Airport,Kelso,NA,USA,46.11800003,-122.8980026
3W2,Put-in-Bay Airport,Put-in-Bay,NA,USA,41.3521,-82.497
TWD,Jefferson County Intl,Port Townsend,NA,USA,48.0314,-122.4838
38W,Lynden Airport,Lynden,NA,USA,48.9558961,-122.4581183
ZRD,Train Station,Richmond,NA,USA,37.5343,-77.42945
ILN,Wilmington Airpark,Wilmington,NA,USA,39.42789841,-83.792099
AVW,Marana Regional Airport,Tucson,NA,USA,32.4095993,-111.2180023
CGZ,Casa Grande Municipal Airport,Casa Grande,NA,USA,32.954899,-111.766998
BXK,Buckeye Municipal Airport,Buckeye,NA,USA,33.42039871,-112.685997
MMI,McMinn County Airport,Athens,NA,USA,35.39730072,-84.56259918
STK,Sterling Municipal Airport,Sterling,NA,USA,40.61529922,-103.2649994
RWL,Rawlins Municipal Airport/Harvey Field,Rawlins,NA,USA,41.80559921,-107.1999969
CDW,Essex County Airport,Caldwell,NA,USA,40.87519836,-74.28140259
AIZ,Lee C Fine Memorial Airport,Kaiser Lake Ozark,NA,USA,38.09600067,-92.54949951
L35,Big Bear City,Big Bear,NA,USA,34.2637778,-116.8560278
TVI,Thomasville Regional Airport,Thomasville,NA,USA,30.90159988,-83.88130188
HSH,Henderson Executive Airport,Henderson,NA,USA,35.97280121,-115.1340027
TMA,Henry Tift Myers Airport,Tifton,NA,USA,31.42900085,-83.4885025
DVT,Phoenix Deer Valley Airport,Phoenix ,NA,USA,33.68830109,-112.0830002
FRG,Republic Airport,Farmingdale,NA,USA,40.72880173,-73.41339874
MCL,McKinley National Park Airport,McKinley Park,NA,USA,63.73260117,-148.9109955
PPC,Prospect Creek Airport,Prospect Creek,NA,USA,66.81410217,-150.6439972
HCC,Columbia County,Hudson NY,NA,USA,42.2913,-73.7103
HLG,Wheeling Ohio County Airport,Wheeling,NA,USA,40.17499924,-80.64630127
40J,Perry-Foley Airport,Perry,NA,USA,30.0692778,-83.5805833
70J,Cairo-Grady County Airport,Cairo,NA,USA,30.8879767,-84.1547353
RKP,Aransas County Airport,Rockport,NA,USA,28.08679962,-97.04460144
TTD,Portland Troutdale Airport,Troutdale,NA,USA,45.54940033,-122.401001
HIO,Portland Hillsboro Airport,Hillsboro,NA,USA,45.540401,-122.949997
24J,Suwannee County Airport,Live Oak,NA,USA,30.300125,-83.0246944
BNO,Burns Municipal Airport,Burns,NA,USA,43.59189987,-118.9550018
PRZ,Prineville Airport,Prineville,NA,USA,44.28699875,-120.9039993
RBL,Red Bluff Municipal Airport,Red Bluff,NA,USA,40.15069962,-122.2519989
NOT,Marin County Airport - Gnoss Field,Novato,NA,USA,38.14360046,-122.5559998
LKV,Lake County Airport,Lakeview,NA,USA,42.16109848,-120.3990021
OTK,Tillamook Airport,Tillamook,NA,USA,45.41820145,-123.814003
ONO,Ontario Municipal Airport,Ontario,NA,USA,44.02050018,-117.0139999
DLS,Columbia Gorge Regional the Dalles Municipal Airport,The Dalles,NA,USA,45.61849976,-121.1669998
GAI,Montgomery County Airpark,Gaithersburg,NA,USA,39.16830063,-77.16600037
2J9,Quincy Municipal Airport,Quincy,NA,USA,30.5978708,-84.557425
MGR,Moultrie Municipal Airport,Moultrie,NA,USA,31.0849167,-83.80325
RCE,Roche Harbor Seaplane Base,Roche Harbor,NA,USA,48.608056,-123.159722
BYW,Blakely Island Airport,Blakely Island,NA,USA,48.56025,-122.80243
RSJ,Rosario Seaplane Base,Rosario,NA,USA,48.645556,-122.868056
WSX,Westsound Seaplane Base,Westsound,NA,USA,48.617778,-122.952778
FBS,Friday Harbor Seaplane Base,Friday Harbor,NA,USA,48.537222,-123.009722
L06,Furnace Creek,Death Valley National Park,NA,USA,36.273,-116.515
MVL,Morrisville Stowe State Airport,Morrisville,NA,USA,44.5345993,-72.61399841
RBD,Dallas Executive Airport,Dallas,NA,USA,32.68090057,-96.86820221
6Y8,Welke Airport,Beaver Island,NA,USA,45.721111,-85.520278
WST,Westerly State Airport,Washington County,NA,USA,41.34960175,-71.80339813
BID,Block Island State Airport,Block Island,NA,USA,41.16809845,-71.57779694
NME,Nightmute Airport,Nightmute,NA,USA,60.47100067,-164.701004
OOK,Toksook Bay Airport,Toksook Bay,NA,USA,60.54140091,-165.0870056
TNK,Tununak Airport,Tununak,NA,USA,60.575556,-165.271667
GNU,Goodnews Airport,Goodnews Bay,NA,USA,59.1175,-161.5775
WWT,Newtok Airport,Newtok,NA,USA,60.939167,-164.641111
BGE,Decatur County Industrial Air Park,Bainbridge,NA,USA,30.9715004,-84.63739777
WHP,Whiteman Airport,Los Angeles,NA,USA,34.25930023,-118.413002
MAE,Madera Municipal Airport,Madera,NA,USA,36.98860168,-120.1119995
U76,Mountain Home Municipal Airport,Mountain Home,NA,USA,43.1316111,-115.7305671
19A,Jackson County Airport,Jefferson,NA,USA,34.1758638,-83.5615972
AAF,Apalachicola Regional Airport,Apalachicola,NA,USA,29.72750092,-85.02749634
SGJ,St. Augustine Airport,St. Augustine,NA,USA,29.95925,-81.3397222
FPR,St Lucie County International Airport,Fort Pierce,NA,USA,27.49510002,-80.36830139
PYM,Plymouth Municipal Airport,Plymouth,NA,USA,41.909,-70.728798
NCO,Quonset State Airport,North Kingstown,NA,USA,41.5970993,-71.41210175
1B9,Mansfield Municipal,Mansfield,NA,USA,42.0001331,-71.1967714
OWD,Norwood Memorial Airport,Norwood,NA,USA,42.19049835,-71.17289734
BAF,Westfield-Barnes Regional Airport,Westfield,NA,USA,42.157799,-72.715599
MGJ,Orange County Airport,Montgomery,NA,USA,41.50999832,-74.26460266
DXR,Danbury Municipal Airport,Danbury,NA,USA,41.37149811,-73.48220062
ASH,Boire Field,Nashua,NA,USA,42.78170013,-71.51480103
LWM,Lawrence Municipal Airport,Lawrence,NA,USA,42.71720123,-71.12339783
OXC,Waterbury Oxford Airport,Oxford,NA,USA,41.47859955,-73.1352005
RMG,Richard B Russell Airport,Rome,NA,USA,34.3506012,-85.15799713
GAD,Northeast Alabama Regional Airport,Gadsden,NA,USA,33.972599,-86.088996
WDR,Barrow County Airport,Winder,NA,USA,33.98289871,-83.66739655
DNN,Dalton Municipal Airport,Dalton,NA,USA,34.72290039,-84.87020111
4A9,Isbell Field Airport,Fort Payne,NA,USA,34.4736944,-85.7213889
LGC,LaGrange Callaway Airport,LaGrange,NA,USA,33.0089,-85.072601
4A4,Polk County Airport - Cornelius Moore Field,Cedartown,NA,USA,34.0186944,-85.1464722
PIM,Harris County Airport,Pine Mountain,NA,USA,32.84069824,-84.88240051
9A1,Covington Municipal Airport,Covington,NA,USA,33.6323083,-83.8474472
GVL,Lee Gilmer Memorial Airport,Gainesville,NA,USA,34.27259827,-83.8302002
54J,DeFuniak Springs Airport,DeFuniak Springs,NA,USA,30.7311111,-86.1537778
9A5,Barwick Lafayette Airport,LaFayette,NA,USA,34.6884792,-85.2903319
PHD,Harry Clever Field,New Philadelpha,NA,USA,40.47090149,-81.41970062
HHH,Hilton Head Airport,Hilton Head Island,NA,USA,32.22439957,-80.69750214
49A,Gilmer County Airport,Ellijay,NA,USA,34.6282222,-84.5265833
0A9,Elizabethton Municipal Airport,Elizabethton,NA,USA,36.3712222,-82.1734167
06A,Moton Field Municipal Airport,Tuskegee,NA,USA,32.4605722,-85.6800278
DNL,Daniel Field,Augusta,NA,USA,33.46649933,-82.03939819
MRN,Foothills Regional Airport,Morganton,NA,USA,35.820202,-81.611397
PVL,Pike County-Hatcher Field,Pikeville,NA,USA,37.5617981,-82.56639862
TOC,Toccoa Airport - R.G. Letourneau Field,Toccoa,NA,USA,34.59379959,-83.29579926
VDF,Tampa Executive Airport,Tampa,NA,USA,28.0139772,-82.3452778
AFW,Fort Worth Alliance Airport,Fort Worth,NA,USA,32.98759842,-97.31880188
MYF,Montgomery Field,San Diego,NA,USA,32.4759,117.759
6A2,Griffin-Spalding County Airport,Griffin,NA,USA,33.2269722,-84.2749444
PPM,Pompano Beach Airpark,Pompano Beach,NA,USA,26.24710083,-80.11109924
LOZ,London-Corbin Airport/Magee Field,London,NA,USA,37.0821991,-84.0848999
FBG,Simmons Army Air Field,Fredericksburg,NA,USA,35.13180161,-78.93669891
RAC,John H Batten Airport,Racine,NA,USA,42.76060104,-87.81520081
49X,Chemehuevi Valley,Chemehuevi Valley,NA,USA,34.528889,-114.431971
TIW,Tacoma Narrows Airport,Tacoma,NA,USA,47.26789856,-122.5780029
X39,Tampa North Aero Park,Tampa,NA,USA,28.221278,-82.374555
GUF,Jack Edwards Airport,Gulf Shores,NA,USA,30.29050064,-87.67179871
HZL,Hazleton Municipal Airport,Hazleton,NA,USA,40.98680115,-75.99490356
CBE,Greater Cumberland Regional Airport,Cumberland,NA,USA,39.61539841,-78.7609024
LNR,Tri-County Regional Airport,Lone Rock,NA,USA,43.21170044,-90.18160248
JOT,Joliet Regional Airport,Joliet,NA,USA,41.51779938,-88.17549896
VYS,Illinois Valley Regional Airport-Walter A Duncan Field,Peru,NA,USA,41.351898,-89.153099
JXN,Jackson County Reynolds Field,Jackson,NA,USA,42.25979996,-84.45939636
BBX,Wings Field,Philadelphia,NA,USA,40.13750076,-75.26509857
OBE,Okeechobee County Airport,Okeechobee,NA,USA,27.26280022,-80.84980011
SEF,Sebring Regional Airport,Sebring,NA,USA,27.45639992,-81.3423996
AVO,Avon Park Executive Airport,Avon Park,NA,USA,27.59119987,-81.52780151
GIF,Winter Haven Regional Airport - Gilbert Field,Winter Haven,NA,USA,28.062901,-81.753304
ZPH,Zephyrhills Municipal Airport,Zephyrhills,NA,USA,28.22820091,-82.15589905
OCF,Ocala International Airport - Jim Taylor Field,Ocala,NA,USA,29.17259979,-82.22419739
AIK,Aiken Regional Airport,Aiken,NA,USA,33.649399,-81.684998
CDN,Woodward Field,Camden,NA,USA,34.28359985,-80.56490326
LBT,Lumberton Regional Airport,Lumberton,NA,USA,34.60990143,-79.05940247
3J1,Ridgeland Airport,Ridgeland,NA,USA,32.4934167,-80.99175
SOP,Moore County Airport,Pinehurst-Southern Pines,NA,USA,35.23740005,-79.3911972
99N,Bamberg County Airport,Bamberg,NA,USA,33.3045278,-81.1084167
93C,Richland Airport,Richland Center,NA,USA,43.2833575,-90.2982819
Y51,Municipal Airport,Viroqua,NA,USA,43.5793603,-90.8964742
7A4,Foster Field,Apple River,NA,USA,42.4664444,-90.1693889
SVH,Statesville Regional Airport,Statesville,NA,USA,35.76530075,-80.9539032
C89,Sylvania Airport,Sturtevant,NA,USA,42.70325,-87.9589722
N53,Stroudsburg-Pocono Airport,East Stroudsburg,NA,USA,41.0358717,-75.1606789
70N,Spring Hill Airport,Sterling,NA,USA,41.3473569,-75.4158972
06N,Randall Airport,Middletown,NA,USA,41.431912,-74.3915611
LHV,William T. Piper Memorial Airport,Lock Haven,NA,USA,41.13560104,-77.42230225
29D,Grove City Airport,Grove City,NA,USA,41.1460278,-80.16775
04G,Lansdowne Airport,Youngstown,NA,USA,41.1304722,-80.6195833
3G3,Wadsworth Municipal,Wadsworth,NA,USA,41.0031572,-81.7564401
3G4,Ashland County Airport,Ashland,NA,USA,40.9029722,-82.2556389
4G0,Pittsburgh-Monroeville Airport,Monroeville,NA,USA,40.4526389,-79.7749167
2G9,Somerset County Airport,Somerset,NA,USA,40.0388708,-79.0149951
4G4,Youngstown Elser Metro Airport,Youngstown,NA,USA,40.9617953,-80.6773264
41N,Braceville Airport,Braceville,NA,USA,41.2111675,-80.9692572
7D9,Germack Airport,Geneva,NA,USA,41.7778322,-80.9039797
BKL,Burke Lakefront Airport,Cleveland,NA,USA,41.51750183,-81.6832962
DKK,Chautauqua County-Dunkirk Airport,Dunkirk,NA,USA,42.49330139,-79.27200317
4G2,Hamburg Inc Airport,Hamburg,NA,USA,42.7008925,-78.9147569
N87,Trenton-Robbinsville Airport,Trenton,NA,USA,40.2139444,-74.6017778
LLY,South Jersey Regional Airport,Mount Holly,NA,USA,39.94290161,-74.84570313
7N7,Spitfire Aerodrome,Pedricktown,NA,USA,39.7355633,-75.3977211
LDJ,Linden Airport,Linden,NA,USA,40.61740112,-74.24459839
O03,Morgantown Airport,Morgantown,NA,USA,40.1570414,-75.8704892
0W3,Harford County Airport,Churchville,NA,USA,39.5668378,-76.2024028
ANQ,Tri State Steuben County Airport,Angola,NA,USA,41.639702,-85.083504
17G,Port Bucyrus-Crawford County Airport,Bucyrus,NA,USA,40.7815556,-82.9748056
X07,Lake Wales Municipal Airport,Lake Wales,NA,USA,27.8938056,-81.6203889
0G7,Finger Lakes Regional Airport,Seneca Falls,NA,USA,42.8835647,-76.7812318
N69,Stormville Airport,Stormville,NA,USA,41.5769708,-73.7323514
4B8,Robertson Field,Plainville,NA,USA,41.6893333,-72.8646944
0G6,Williams County Airport,Bryan,NA,USA,41.4673056,-84.5067778
CLW,Clearwater Air Park,Clearwater,NA,USA,27.97669983,-82.75869751
X49,South Lakeland Airport,Lakeland,NA,USA,27.9333581,-82.0439739
CGX,Chicago Meigs Airport,Chicago,NA,USA,41.85879898,-87.60790253
CRE,Grand Strand Airport,North Myrtle Beach,NA,USA,33.81169891,-78.72389984
Y72,Bloyer Field,Tomah,NA,USA,43.9762222,-90.4806111
WBW,Wilkes Barre Wyoming Valley Airport,Wilkes-Barre,NA,USA,41.29719925,-75.85119629
LNN,Willoughby Lost Nation Municipal Airport,Willoughby,NA,USA,41.68399811,-81.38970184
LEW,Auburn Lewiston Municipal Airport,Lewiston,NA,USA,44.04850006,-70.28350067
6S2,Florence,Florence,NA,USA,43.9828168,-124.1113687
1A3,Martin Campbell Field Airport,Copperhead,NA,USA,35.0158056,-84.3468333
NBU,Naval Air Station,Glenview,NA,USA,42.090556,-87.8225
MRK,Marco Island Executive Airport,Marco Island Airport,NA,USA,25.995001,-81.672501
DRE,Drummond Island Airport,Drummond Island,NA,USA,46.00930023,-83.74389648
8M8,Garland Airport,Lewiston,NA,USA,44.8065278,-84.2761944
GDW,Gladwin Zettel Memorial Airport,Gladwin,NA,USA,43.97060013,-84.47499847
24C,Lowell City Airport,Lowell,NA,USA,42.95392,-85.3439058
06C,Schaumburg Regional,Schaumburg,NA,USA,41.9893408,-88.1012428
MFI,Marshfield Municipal Airport,Marshfield,NA,USA,44.63690186,-90.18930054
ISW,Alexander Field South Wood County Airport,Wisconsin Rapids,NA,USA,44.36029816,-89.83899689
CWI,Clinton Municipal Airport,Clinton,NA,USA,41.83110046,-90.32910156
BVY,Beverly Municipal Airport,Beverly,NA,USA,42.58420181,-70.91649628
O27,Oakdale Airport,Oakdale,NA,USA,37.7563333,-120.8001944
POF,Poplar Bluff Municipal Airport,Poplar Bluff,NA,USA,36.77389908,-90.32489777
EOK,Keokuk Municipal Airport,Keokuk,NA,USA,40.4598999,-91.42849731
ME5,Banks Airport,Swans Island,NA,USA,44.1653889,-68.4281667
STP,St Paul Downtown Holman Field,St. Paul,NA,USA,44.93450165,-93.05999756
E51,Bagdad Airport,Bagdad,NA,USA,34.5958528,-113.170195
E55,Ocean Ridge Airport,Gualala,NA,USA,38.8016111,-123.5306389
1G3,Kent State Airport,Kent,NA,USA,41.1513889,-81.4151111
HAO,Butler Co Regional Airport - Hogan Field,Hamilton,NA,USA,39.36380005,-84.52200317
ZRA,Atlantic City Rail Terminal,Atlantic City NJ,NA,USA,39.3665,-74.442
ZSF,Springfield Amtrak Station,Springfield MA,NA,USA,42.106,-72.593054
XZK,Amherst Amtrak Station AMM,Amherst MA,NA,USA,42.375,-72.511389
FLD,Fond du Lac County Airport,Fond du Lac,NA,USA,43.77119827,-88.48840332
STE,Stevens Point Municipal Airport,Stevens Point,NA,USA,44.54520035,-89.53029633
25D,Forest Lake Airport,Forest Lake,NA,USA,45.2477456,-92.9943853
GQQ,Galion Municipal Airport,Galion,NA,USA,40.7533989,-82.72380066
CKV,Clarksville–Montgomery County Regional Airport,Clarksville,NA,USA,36.62189865,-87.41500092
LPC,Lompoc Airport,Lompoc,NA,USA,34.66559982,-120.4680023
CTH,Chester County G O Carlson Airport,Coatesville,NA,USA,39.97900009,-75.8655014
LKP,Lake Placid Airport,Lake Placid,NA,USA,44.26449966,-73.9618988
NY9,Long Lake,Long Lake,NA,USA,43.9750617,-74.42044
WIH,Wishram Amtrak Station,Wishram,NA,USA,45.6576,-120.9664
AOH,Lima Allen County Airport,Lima,NA,USA,40.706902,-84.026703
SSI,Malcolm McKinnon Airport,Brunswick,NA,USA,31.15180016,-81.39129639
BFP,Beaver County Airport,Beaver Falls,NA,USA,40.77249908,-80.3914032
F57,Seaplane Base,Winterhaven,NA,USA,28.0575,-81.7628056
GGE,Georgetown County Airport,Georgetown,NA,USA,33.31169891,-79.31960297
HDI,Hardwick Field,Cleveland,NA,USA,35.2201004,-84.83239746
2A0,Mark Anton Airport,Dayton,NA,USA,35.48625,-84.9310833
2G2,Jefferson County Airpark,Steubenville,NA,USA,40.3602179,-80.7008742
RNT,Renton Municipal Airport,Renton,NA,USA,47.49309921,-122.2160034
POC,Brackett Field,La Verne,NA,USA,34.09159851,-117.7819977
09J,Jekyll Island Airport,Jekyll Island,NA,USA,31.0744722,-81.4277778
CDK,CedarKey,Cedar Key,NA,USA,29.1342222,-83.0504722
CTY,Cross City Airport,Cross City,NA,USA,29.63549995,-83.10479736
CEU,Oconee County Regional Airport,Clemson,NA,USA,34.6719017,-82.8864975
36U,Heber City Municipal Airport,Heber,NA,USA,40.4818056,-111.4288056
BEC,Beech Factory Airport,Wichita,NA,USA,37.69449997,-97.21499634
47A,Cherokee County Airport,Canton,NA,USA,34.3122175,-84.4221556
55J,Fernandina Beach Municipal Airport,Fernandina Beach,NA,USA,30.6118333,-81.4611944
SNY,Sidney Municipal-Lloyd W Carr Field,Sidney,NA,USA,41.10129929,-102.9850006
W13,Eagle's Nest Airport,Waynesboro,NA,USA,38.076944,-78.944167
JRF,Kalaeloa Airport,Kapolei,NA,USA,21.3074,-158.070009
ECA,Iosco County Airport,East Tawas,NA,USA,44.312801,-83.422302
CLC,Clear Lake Metroport,Clear Lake City,NA,USA,29.5569,-95.137497
WBU,Boulder Municipal Airport,Boulder,NA,USA,40.03939819,-105.2259979
PAO,Palo Alto Airport of Santa Clara County,Palo Alto,NA,USA,37.46110153,-122.1149979
MSC,Falcon Field,Mesa,NA,USA,33.46080017,-111.7279968
PTK,Oakland County International Airport,Pontiac,NA,USA,42.66550064,-83.42009735
EEN,Dillant Hopkins Airport,Keene,NA,USA,42.89839935,-72.27079773
EQY,Monroe Reqional Airport,Charlotte,NA,USA,35.01833,-80.62001
IOW,Iowa City Municipal Airport,Iowa City,NA,USA,41.6391983,-91.54650116
ANP,Lee Airport,Annapolis,NA,USA,38.942902,-76.568398
PEQ,Pecos Municipal Airport,Pecos,NA,USA,31.38240051,-103.5110016
HBG,Hattiesburg Bobby L Chain Municipal Airport,Hattiesburg,NA,USA,31.26479912,-89.25279999
YKN,Chan Gurney Municipal Airport,Yankton,NA,USA,42.91669846,-97.3859024
SES,Selfield Airport,Selma Alabama,NA,USA,32.4404,-86.9522
1C9,Frazier Lake Airpark,Hollister,NA,USA,54.01333333,-124.7683333
HWD,Hayward Executive Airport,Hayward,NA,USA,37.65919876,-122.1220016
ARB,Ann Arbor Municipal Airport,Ann Arbor,NA,USA,42.22299957,-83.74559784
ZTY,Boston Back Bay Station,Boston,NA,USA,42.3478,-71.075
NGZ,Alameda Naval Air Station,Alameda,NA,USA,37.78889847,-122.3199997
ZWI,Wilmington Amtrak Station,Wilmington,NA,USA,39.736667,-75.551667
IMM,Immokalee Regional Airport,Immokalee ,NA,USA,26.43320084,-81.40100098
ZRZ,New Carrollton Rail Station,New Carrollton,NA,USA,38.948,-76.8719
PTB,Dinwiddie County Airport,Petersburg,NA,USA,37.18379974,-77.50740051
SBM,Sheboygan County Memorial Airport,Sheboygan,NA,USA,43.76959991,-87.85140228
3D2,Ephraim-Gibraltar Airport,Ephraim,NA,USA,45.1354167,-87.1879444
MZJ,Pinal Airpark,Marana,NA,USA,32.51060104,-111.3280029
SAD,Safford Regional Airport,Safford,NA,USA,32.85480118,-109.6350021
SIK,Sikeston Memorial Municipal Airport,Sikeston,NA,USA,36.89889908,-89.5617981
L52,Oceano County Airport,Oceano,NA,USA,35.10147222,-120.6223611
GFL,Floyd Bennett Memorial Airport,Queensbury,NA,USA,43.34120178,-73.61029816
K27,Burrello-Mechanicville Airport,Mechanicville,NA,USA,42.893133,-73.66845
MTN,Martin State Airport,Baltimore,NA,USA,39.325699,-76.413803
FRY,Eastern Slopes Regional Airport,Fryeburg,NA,USA,43.99110031,-70.94789886
NEW,Lakefront Airport,New Orleans,NA,USA,30.04240036,-90.02829742
COE,Coeur D'Alene - Pappy Boyington Field,Coeur d'Alene,NA,USA,47.77429962,-116.8199997
BMT,Beaumont Municipal Airport,Beaumont,NA,USA,30.07069969,-94.21579742
DNV,Vermilion Regional Airport,Danville,NA,USA,40.19919968,-87.59590149
COI,Merritt Island Airport,Cocoa,NA,USA,28.3416111,-80.6854722
X59,Valkaria Municipal,Valkaria,NA,USA,27.9608611,-80.5583333
TIX,Space Coast Regional Airport,Titusville,NA,USA,28.51479912,-80.79920197
X26,Sebastian Municipal,Sebastian,NA,USA,27.81325,-80.4955833
1H2,Effingham Memorial Airport,Effingham,NA,USA,39.07,-88.534
AAP,Andrau Airpark,Houston,NA,USA,29.72249985,-95.58830261
FCM,Flying Cloud Airport,Eden Prairie,NA,USA,44.82720184,-93.45709991
OJC,Johnson County Executive Airport,Olathe,NA,USA,38.84759903,-94.73760223
X04,Apopka,Orlando,NA,USA,28.707222,-81.581667
MNZ,Manassas Regional Airport/Harry P. Davis Field,Manassas,NA,USA,38.72140121,-77.51540375
LJN,Texas Gulf Coast Regional Airport,Angleton,NA,USA,29.10860062,-95.46209717
UT3,Hite Airport,Hanksville,NA,USA,37.8916547,-110.3840289
9G1,Rock Airport,Tarentum,NA,USA,40.6035463,-79.8261189
2B2,Plum Island Airport,Newburyport,NA,USA,42.7953611,-70.8394444
LKK,Kulik Lake Airport,Kulik Lake,NA,USA,58.96591,-155.108089
PTA,Port Alsworth Airport,Port alsworth,NA,USA,60.201681,-154.325863
PRL,Port Oceanic Airport,Port Oceanic,NA,USA,60.2083333,-147.8194444
EWK,Newton City-County Airport,Newton,NA,USA,38.05820084,-97.27449799
TZR,Taszár Air Base,Columbus,NA,USA,46.39310074,17.91749954
W04,Ocean Shores Municipal,Ocean Shores,NA,USA,46.5995,-124.0854
55S,Packwood,Packwood,NA,USA,46.3625,-121.4067
FBR,Fort Bridger Airport,Fort Bridger,NA,USA,41.39189911,-110.4069977
CLS,Chehalis Centralia Airport,Chehalis,NA,USA,46.67699814,-122.9830017
S30,Lebanon State,Lebanon,NA,USA,44.3179,-122.5577
EVW,Evanston-Uinta County Airport-Burns Field,Evanston,NA,USA,41.27479935,-111.0350037
EUF,Weedon Field,Eufala,NA,USA,31.95129967,-85.12889862
MEO,Dare County Regional Airport,Manteo,NA,USA,35.91899872,-75.69550323
AUO,Auburn University Regional Airport,Auburn,NA,USA,32.615101,-85.433998
DBN,W H 'Bud' Barron Airport,Dublin,NA,USA,32.56439972,-82.98529816
UCA,Union Station,Utica,NA,USA,43.104167,-75.223333
CVO,Corvallis Municipal Airport,Corvallis,NA,USA,44.49720001,-123.2900009
DHB,Deer Harbor Seaplane,Deer Harbor,NA,USA,48.618397,-123.00596
OLT,San Diego Old Town Transit Center,San Diego,NA,USA,32.7552,-117.1995
OGD,Ogden Hinckley Airport,Ogden,NA,USA,41.19589996,-112.012001
AKO,Colorado Plains Regional Airport,Akron,NA,USA,40.17559814,-103.2220001
SHN,Sanderson Field,Shelton,NA,USA,47.23360062,-123.1480026
WNA,Napakiak Airport,Napakiak,NA,USA,60.69029999,-161.9790039
DJN,Delta Junction Airport,Delta Junction,NA,USA,64.050556,-145.717222
SVS,Stevens Village Airport,Stevens Village,NA,USA,66.016944,-149.054444
KKI,Akiachak Airport,Akiachak,NA,USA,60.906111,-161.426944
4A2,Atmautluak Airport,Atmautluak,NA,USA,60.866667,-162.273056
PKA,Napaskiak Airport,Napaskiak,NA,USA,60.70289993,-161.7779999
KCG,Chignik Fisheries Airport,Chignik,NA,USA,56.317778,-158.590833
DYL,Doylestown Airport,Doylestown,NA,USA,40.33300018,-75.12229919
ESP,Stroudsburg Pocono,East Stroudsburg,NA,USA,41.035983,-75.160236
N40,Sky Manor,Pittstown,NA,USA,40.565328,-74.978872
OCW,Warren Field,Washington,NA,USA,35.57049942,-77.04979706
SWO,Stillwater Regional Airport,Stillwater,NA,USA,36.16120148,-97.08570099
OKM,Okmulgee Regional Airport,Okmulgee,NA,USA,35.66809845,-95.94869995
CUH,Cushing Municipal Airport,Cushing,NA,USA,35.94990158,-96.77310181
CSM,Clinton Sherman Airport,Clinton,NA,USA,35.33980179,-99.20050049
WLD,Strother Field,Winfield,NA,USA,37.16859818,-97.03759766
PWA,Wiley Post Airport,Oklahoma City,NA,USA,35.53419876,-97.64710236
DTN,Shreveport Downtown Airport,Shreveport,NA,USA,32.54019928,-93.74500275
SEP,Stephenville Clark Regional Airport,Stephenville,NA,USA,32.21530151,-98.17769623
ADT,Ada Regional Airport,Ada,NA,USA,34.804298,-96.671303
IRB,Iraan Municipal Airport,Iraan,NA,USA,30.90570068,-101.8919983
IKB,Wilkes County Airport,North Wilkesboro,NA,USA,36.22280121,-81.09829712
DAN,Danville Regional Airport,Danville,NA,USA,36.57289886,-79.33609772
HCW,Cheraw Municipal Airport/Lynch Bellinger Field,Cheraw,NA,USA,34.71289825,-79.95700073
X06,Arcadia Municipal Airport,Arcadia,NA,USA,27.1174,-81.5023
2RR,River Ranch Resort Airport,River Ranch,NA,USA,27.4676,-81.1224
X10,Belle Glade State Municipal Airport,Belle Galdes,NA,USA,26.419,-80.3965
X51,Homestead General Aviation Airport,Homestead,NA,USA,25.2995,-80.3325
X50,Massey Ranch Airpark Airport,Edgewater,NA,USA,28.5874,-80.5549
F45,North Palm Beach County General Aviation Airport,Palm Beach Gardens,NA,USA,26.5076,-80.1334
2IS,Airglades Airport,Clewiston,NA,USA,26.4411,-81.0306
W24,Falwell,Lynchburg,NA,USA,37.2268,-79.0733
58J,Huggins Memorial,Timmonsville,NA,USA,34.14,-79.92
EMT,San Gabriel Valley Airport,El Monte,NA,USA,34.086102,-118.035004
ZLY,Albany-Rennselaer Amtrak Station,Rennselaer,NA,USA,42.6408,-73.7419
SSF,Stinson Municipal Airport,Stinson,NA,USA,29.33699989,-98.47109985
JAS,Jasper County Airport-Bell Field,Jasper,NA,USA,30.88570023,-94.03489685
MRF,Marfa Municipal Airport,Marfa,NA,USA,30.371099,-104.017997
ALE,Alpine Casparis Municipal Airport,Alpine,NA,USA,30.38419914,-103.6839981
CCB,Cable Airport,Upland,NA,USA,34.11159897,-117.6880035
EKI,Elkhart Municipal Airport,Elkhart,NA,USA,41.7193985,-86.00319672
CUB,Jim Hamilton L.B. Owens Airport,Columbia,NA,USA,33.97050095,-80.99520111
GDC,Donaldson Field Airport,Greenville,NA,USA,34.758301,-82.376404
HVS,Hartsville Regional Airport,Hartsville,NA,USA,34.40309906,-80.11920166
LEE,Leesburg International Airport,Leesburg,NA,USA,28.82309914,-81.80870056
CNO,Chino Airport,Chino,NA,USA,33.97470093,-117.637001
6Y1,Bois Blanc Island Airport,Bois Blanc Island,NA,USA,45.7662977,-84.5038139
PRB,Paso Robles Municipal Airport,Paso Robles,NA,USA,35.67290115,-120.6269989
FID,Elizabeth Field,Southold,NA,USA,41.1505,-72.0154
ZRV,Providence Station,Providence,NA,USA,41.829087,-71.41325
ZTD,Schenectady Amtrak Station,Schenectady,NA,USA,42.8146,-73.9428
HAF,Half Moon Bay Airport,Half Moon Bay,NA,USA,37.51340103,-122.5009995
WJF,General WM J Fox Airfield,Lancaster,NA,USA,34.74110031,-118.2190018
L05,Kern Valley Airport,Kernville,NA,USA,35.7282222,-118.4197222
D95,Dupont-Lapeer,Lapeer  MI ,NA,USA,43.0664722,-83.2715556
CXC,Chitina Airport,Chitina,NA,USA,61.515833,-144.436667
W79,Tappahannock Municipal,Tappahannock,NA,USA,37.925136,-76.871631
26A,Ashland-Lineville Airport,Lineville,NA,USA,33.2841972,-85.8089653
ASN,Talladega Municipal Airport,Talladega,NA,USA,33.56990051,-86.05090332
GMU,Greenville Downtown Airport,Greenville,NA,USA,34.84790039,-82.34999847
8A1,Guntersville Municipal Airport - Joe Starnes Field,Guntersville,NA,USA,34.4017219,-86.2657787
TOI,Troy Municipal Airport at N Kenneth Campbell Field,Troy,NA,USA,31.860399,-86.012101
ETS,Enterprise Municipal Airport,Enterprise,NA,USA,31.29969978,-85.89990234
14J,Carl Folsom Airport,Elba,NA,USA,31.41,-86.090278
71J,Blackwell Field,Ozark,NA,USA,31.431944,-85.620556
41A,Reeves Airport,Tallassee,NA,USA,32.515,-85.876111
79J,South Alabama Regional Airport,Andalusia,NA,USA,31.308333,-86.392222
ALX,Thomas C Russell Field,Alexander City,NA,USA,32.91469955,-85.96299744
HDE,Brewster Field,Holdredge,NA,USA,40.452099,-99.336502
PTT,Pratt Regional Airport,Pratt,NA,USA,37.70159912,-98.74690247
LXN,Jim Kelly Field,Lexington,NA,USA,40.79100037,-99.77729797
CBF,Council Bluffs Municipal Airport,Council Bluffs,NA,USA,41.25920105,-95.76059723
OKK,Kokomo Municipal Airport,Kokomo,NA,USA,40.52819824,-86.05899811
GBG,Galesburg Municipal Airport,Galesburg,NA,USA,40.93799973,-90.43109894
5K2,Tribune,Tribune,NA,USA,38.4514722,-101.7500833
GUY,Guymon Municipal Airport,Guymon,NA,USA,36.68510056,-101.5080032
OZS,Camdenton,Camdenton,NA,USA,37.9739722,-92.6911944
IDP,Independence Municipal Airport,Independence,NA,USA,37.15840149,-95.77839661
BBC,Bay City Municipal Airport,Bay City,NA,USA,28.97330093,-95.8635025
PRX,Cox Field,Paris,NA,USA,33.63660049,-95.45079803
CFV,Coffeyville Municipal Airport,Coffeyville,NA,USA,37.09400177,-95.57189941
GXY,Greeley–Weld County Airport,Greeley,NA,USA,40.43740082,-104.6330032
OEL,Oryol Yuzhny Airport,Oakley,NA,USA,52.93470001,36.00220108
FET,Fremont Municipal Airport,Fremont,NA,USA,41.44910049,-96.52020264
LGD,La Grande/Union County Airport,La Grande,NA,USA,45.29019928,-118.0070038
MPO,Pocono Mountains Municipal Airport,Mount Pocono,NA,USA,41.137503,-75.378897
UKT,Quakertown Airport,Quakertown,NA,USA,40.43519974,-75.38189697
PCT,Princeton,Princeton,NA,USA,40.399167,-74.658889
NRW,Northwest Arkansas Samuel Walton International Airport,Bentonville,NA,USA,36.38651696,-94.15344121
NGM,NAS Agana Airport,Agana,NA,USA,13.483056,144.7933673
BNG,Banning Municipal Airport,Banning,NA,USA,33.92309952,-116.8509979
OFK,Karl Stefan Memorial Airport,Norfolk  Nebraska,NA,USA,41.98550034,-97.43509674
TPF,Peter O Knight Airport,Tampa,NA,USA,27.91559982,-82.44930267
N10,Perkiomen Valley Airport,Collegeville,NA,USA,40.2040483,-75.4302631
W29,Bay Bridge,Stevensville,NA,USA,38.9764554,-76.3299691
MTP,Montauk Airport,Montauk,NA,USA,41.0765,-71.920797
OLW,Centennial Station-Amtrak,Olympia,NA,USA,46.99145,-122.79403
LDM,Mason County Airport,Ludington,NA,USA,43.96250153,-86.40789795
RHV,Reid-Hillview Airport of Santa Clara County,San Jose,NA,USA,37.332901,-121.8190002
ZXS,Buffalo-Exchange Street Station,Buffalo,NA,USA,42.8783,-78.8738
5Z9,Lake Brooks AK,Katmai National Park ,NA,USA,58.554722,-155.777217
ZRL,Lancaster Station,Lancaster,NA,USA,40.054364,-76.307722
ZUG,Harrisburg Transportation Center,Harrisburg,NA,USA,40.261944,-76.877778
ZTJ,Princeton Junction,Princeton,NA,USA,40.3171699,-74.6227145
S52,Methow Valley State Airport,Winthrop,NA,USA,48.4249483,-120.1458856
S10,Lake Chelan Airport,Chelan,NA,USA,47.8660103,-119.9427017
W12,Lost River Resort Airport,Mazma,NA,USA,48.6495842,-120.5020444
6S9,Stehekin State Airport,Stehekin,NA,USA,48.3457778,-120.7208056
S27,Kalispell City Airport,Kalispell,NA,USA,48.1785694,-114.3037408
WVI,Watsonville Municipal Airport,Watsonville,NA,USA,36.93569946,-121.7900009
HLI,Hollister Municipal Airport,Hollister,NA,USA,36.8932991,-121.4100037
ALN,St Louis Regional Airport,Alton/St Louis,NA,USA,38.89030075,-90.04599762
AXN,Chandler Field,Alexandria,NA,USA,45.86629868,-95.3946991
CLU,Columbus Municipal Airport,Columbus,NA,USA,39.26190186,-85.89630127
BBD,Curtis Field,Brady,NA,USA,31.17930031,-99.32389832
BIH,Eastern Sierra Regional Airport,Bishop,NA,USA,37.37310028,-118.3639984
BKE,Baker City Municipal Airport,Baker City,NA,USA,44.83729935,-117.8089981
BPI,Miley Memorial Field,Big Piney,NA,USA,42.58509827,-110.1110001
WMH,Ozark Regional Airport,Mountain Home,NA,USA,36.3689003,-92.47049713
BTL,W K Kellogg Airport,Battle Creek,NA,USA,42.30730057,-85.25150299
BYI,Burley Municipal Airport,Burley,NA,USA,42.54259872,-113.7720032
CCY,Northeast Iowa Regional Airport,Charles City,NA,USA,43.07260132,-92.6108017
CNU,Chanute Martin Johnson Airport,Chanute,NA,USA,37.66880035,-95.48509979
CRG,Jacksonville Executive at Craig Airport,Jacksonville,NA,USA,30.3362999,-81.51439667
CSV,Crossville Memorial Whitson Field,Crossville,NA,USA,35.95130157,-85.08499908
DAA,Davison Army Air Field,Fort Belvoir,NA,USA,38.71500015,-77.18099976
DAG,Barstow Daggett Airport,Daggett,NA,USA,34.85369873,-116.7870026
DMN,Deming Municipal Airport,Deming,NA,USA,32.26229858,-107.7210007
DRA,Desert Rock Airport,Mercury,NA,USA,36.6194,-116.032997
EED,Needles Airport,Needles,NA,USA,34.7663002,-114.6230011
EGI,Duke Field,Crestview,NA,USA,30.65040016,-86.52290344
EKA,Murray Field,Eureka,NA,USA,40.80339813,-124.112999
HYR,Sawyer County Airport,Hayward,NA,USA,46.02519989,-91.44429779
JCT,Kimble County Airport,Junction,NA,USA,30.51129913,-99.7634964
LOL,Derby Field,Lovelock,NA,USA,40.06639862,-118.5650024
MBG,Mobridge Municipal Airport,Mobridge,NA,USA,45.54650116,-100.4079971
MCB,Mc Comb/Pike County Airport/John E Lewis Field,Mc Comb,NA,USA,31.17849922,-90.47190094
MDH,Southern Illinois Airport,Carbondale/Murphysboro,NA,USA,37.77809906,-89.2519989
MMT,Mc Entire Joint National Guard Base,Eastover,NA,USA,33.92079926,-80.80130005
NHZ,Brunswick Executive Airport,Brunswick,NA,USA,43.89220047,-69.93859863
NRB,Naval Station Mayport (Admiral David L. Mcdonald Field),Mayport,NA,USA,30.39109993,-81.42469788
OGB,Orangeburg Municipal Airport,Orangeburg,NA,USA,33.45679855,-80.85949707
OTM,Ottumwa Regional Airport,Ottumwa,NA,USA,41.10660172,-92.44789886
OZR,Cairns AAF (Fort Rucker) Air Field,Fort Rucker/Ozark,NA,USA,31.27569962,-85.71340179
PWY,Ralph Wenz Field,Pinedale,NA,USA,42.79550171,-109.8069992
POU,Dutchess County Airport,Poughkeepsie,NA,USA,41.62659836,-73.88420105
RSL,Russell Municipal Airport,Russell,NA,USA,38.87210083,-98.8117981
RWF,Redwood Falls Municipal Airport,Redwood Falls,NA,USA,44.54719925,-95.08229828
SNS,Salinas Municipal Airport,Salinas,NA,USA,36.66279984,-121.6060028
TPH,Tonopah Airport,Tonopah,NA,USA,38.06019974,-117.086998
UKI,Ukiah Municipal Airport,Ukiah,NA,USA,39.12599945,-123.2009964
UOX,University Oxford Airport,Oxford,NA,USA,34.38430023,-89.53679657
HTV,Huntsville Regional Airport,Huntsville,NA,USA,30.74690056,-95.58719635
VTN,Miller Field,Valentine,NA,USA,42.85779953,-100.5479965
WMC,Winnemucca Municipal Airport,Winnemucca,NA,USA,40.89659882,-117.8059998
WWR,West Woodward Airport,Woodward,NA,USA,36.438,-99.5226667
ZZV,Zanesville Municipal Airport,Zanesville,NA,USA,39.94440079,-81.89209747
ENN,Nenana Municipal Airport,Nenana,NA,USA,64.54730225,-149.0740051
WWA,Wasilla Airport,Wasilla,NA,USA,61.57170105,-149.5399933
DIC,Dicka,DICKA,NA,USA,37.789,-122.43
MVW,Skagit Regional Airport,Skagit,NA,USA,48.47090149,-122.4209976
APT,Marion County Brown Field,Jasper,NA,USA,35.060699,-85.585297
DCU,Pryor Field Regional Airport,Decatur,NA,USA,34.65269852,-86.94539642
GLW,Glasgow Municipal Airport,Glasgow,NA,USA,37.03179932,-85.9536972
FIN,Flagler County Airport,Flagler County,NA,USA,29.4645926,-81.2091644
N96,Bellefonte Airport,Bellefonte,NA,USA,40.8855,-77.8162222
RNZ,Jasper County Airport,Rensselaer,NA,USA,40.94789886,-87.18260193
3N6,Old Bridge Airport,Englishtown,NA,USA,40.3298867,-74.3467869
PRK,Port Kent,Port Kent,NA,USA,44.5253502,-73.4021074
TBR,Statesboro Bulloch County Airport,Statesboro,NA,USA,32.48270035,-81.73690033
COP,Cooperstown,Cooperstown,NA,USA,42.6291667,-74.8911111
OCO,OSRUI,Oconomowoc,NA,USA,43.109374,-88.485677
BNL,Uptown Station,Normal,NA,USA,40.508611,-88.984167
1S5,Sunnyside Municipal Airport,Sunnyside,NA,USA,46.3270833,-119.9703611
EMB,Embarcadero,San Francisco,NA,USA,37.795278,-122.39361
C29,Middleton Municipal Airport - Morey Field,Middleton,NA,USA,43.1142699,-89.5315336
ETB,West Bend Municipal Airport,WEST BEND,NA,USA,43.42219925,-88.12789917
GLR,Gaylord Regional Airport,GAYLORD,NA,USA,45.01350021,-84.70359802
TWM,Richard B Helgeson Airport,Two Harbors,NA,USA,47.0519,-91.7423
AID,Anderson Municipal Darlington Field,ANDERSON,NA,USA,40.10860062,-85.61299896
PCD,Prairie Du Chien Municipal Airport,Prairie du Chien,NA,USA,43.01929855,-91.123703
T74,Taylor Municipal Airport,Taylor,NA,USA,30.5726,-97.4432
8A7,Twin Lakes Airport,Mocksville,NA,USA,35.914915,-80.4568064
1N1,Sandia Airpark Estates East Airport,Edgewood,NA,USA,35.0946111,-106.1645556
E98,Mid valley Airpark,Los Lunas,NA,USA,34.7610083,-106.7449444
E80,Alexander Municipal Airport,Belen,NA,USA,34.6458616,-106.8363401
3M0,Gastons Airport,Lakeview,NA,USA,36.3490556,-92.5558056
P14,Holbrook Municipal Airport,Holbrook,NA,USA,34.9407222,-110.1385
TSM,Taos Regional Airport,Taos,NA,USA,36.45819855,-105.6719971
A20,Sun Valley Airport,Bullhead City,NA,USA,35.0056389,-114.5650278
P20,Avi Suquilla Airport,Parker,NA,USA,34.1498333,-114.2678333
RTN,Raton Municipal-Crews Field,Raton,NA,USA,36.74150085,-104.5019989
3V5,Fort Collins Downtown Airport,Fort Collins,NA,USA,40.588336,-105.041674
6Y9,Prickett-Grooms Field Airport,Sidnaw,NA,USA,46.5086528,-88.7058472
3K3,Syracuse-Hamilton County Municipal Airport,Syracuse,NA,USA,37.9985831,-101.7476078
E05,Hatch Municipal Airport,Hatch,NA,USA,32.660292,-107.1954089
5V5,Shiprock Airstrip,Shiprock,NA,USA,36.6976908,-108.7009692
N19,Aztec Municipal Airport,Aztec,NA,USA,36.8369486,-108.0286556
1V0,Navajo Lake Airport,Navajo Dam,NA,USA,36.8082903,-107.6526139
24N,Jicarilla Apache Nation Airport,Dulce,NA,USA,36.828535,-106.8841914
E32,Lindrith Airpark,Lindrith,NA,USA,36.2914064,-107.0561544
SXU,KSXU,Santa Rosa,NA,USA,34.9356721,-104.6425638
PPA,Perry Lefors Field,Pampa,NA,USA,35.61299896,-100.9960022
FLP,Marion County Regional Airport,Flippin,NA,USA,36.29090118,-92.59030151
K88,Allen County Airport,Iola,NA,USA,37.868222,-95.386944
BGD,Hutchinson County Airport,Borger,NA,USA,35.70090103,-101.3939972
N29,Magdalena Airport,Magdalena,NA,USA,34.0941514,-107.2971694
F37,Carrizozo Municipal Airport,Carrizozo,NA,USA,33.6489028,-105.8962192
E14,Ohkay Owingeh Airport,Espanola,NA,USA,36.026119,-106.0454146
N24,Questa Municipal Airport Nr 2,Questa,NA,USA,36.8003056,-105.5975
S42,Springer Municipal Airport,Springer,NA,USA,36.3315222,-104.6178514
M10,Mountainair Municipal Airport,Mountainair,NA,USA,34.5333333,-106.2238889
E92,Estancia Municipal Airport,Estancia,NA,USA,34.7633933,-106.0414056
E89,Conchas Lake Airport,Conchas Dam,NA,USA,35.3678389,-104.1805083
A09,Eagle Airpark,Bullhead City,NA,USA,34.8881667,-114.6166389
IKW,Jack Barstow Municipal Airport,Midland,NA,USA,43.662778,-84.261389
5BL,Homer-Beluga Lake Seaplane Base,Homer,NA,USA,59.6415556,-151.5211278
SQA,Santa Ynez Airport,Santa Ynez,NA,USA,34.60680008,-120.0759964
NWK,Newark Station - Delaware,Newark,NA,USA,39.670278,-75.75305
DIO,Diomede Heliport,Diomede,NA,USA,65.7583,-168.9537111
SPA,Spartanburg Downtown Memorial Airport,Spartangurg,NA,USA,34.91569901,-81.95649719
PPF,Tri-City Airport,Parsons,NA,USA,37.32989883,-95.5062027
AYS,Waycross Ware County Airport,Waycross,NA,USA,31.24909973,-82.39550018
AIY,Bader Field,Atlantic City,NA,USA,39.36,-74.456111
PMH,Greater Portsmouth Regional Airport,Portsmouth,NA,USA,38.84049988,-82.84729767
SRB,Upper cumberland ,Sparta,NA,USA,36.0567386,-85.5301081
CLP,Clarks Point Airport,Clarks Point,NA,USA,58.83369827,-158.529007
KWF,Waterfall Seaplane Base,Waterfall,NA,USA,55.296389,-133.243333
T67,Hicks Airfield,Fort Worth,NA,USA,32.5444,-97.2404
RDB,Red Dog Airport,Red Dog,NA,USA,68.03209686,-162.8990021
1H0,Creve Coeur Airport,Creve Coeur,NA,USA,38.726667,-90.508333
5Z5,Kantishna Airport,Kantishna,NA,USA,63.541667,-150.993889
L20,Coal Creek,Coal Creek,NA,USA,65.311336,-143.135452
4R5,Major Gilbert Field Airport,La Pointe,NA,USA,46.7886667,-90.7587222
22I,Hocking Hills,Hocking Hills,NA,USA,39.328125,-82.4418217
SOV,Seldovia Airport,Seldovia,NA,USA,59.44240189,-151.7039948
3O8,Harris Ranch,Coalinga,NA,USA,36.2481111,-120.2384722
VDI,Vidalia Regional Airport,Vidalia,NA,USA,32.19269943,-82.37120056
MHE,Mitchell Municipal Airport,Mitchell,NA,USA,43.77479935,-98.03859711
5Z1,Juneau Harbor Seaplane Base,Juneau,NA,USA,58.2988889,-134.4077778
TKL,Taku Lodge Seaplane Base,Taku Lodge,NA,USA,58.4896831,-133.9434211
